POI_id,POI_catid,POI_catid_code,POI_catname,POI_catname_,latitude,longitude,city,countryCode
4b196b3af964a52000dd23e3,7ab55411dbce49ccbf61c9545a64890a,92,Sandwich Place,Food,33.479985,-112.077729,Phoenix,US
4e7fa10fb8f76e28c2deef16,0b5817ff78e943bc9fd7436a113f0a6e,279,City,Outdoors & Recreation,33.503444,-112.073675,Phoenix,US
4a901a25f964a520021620e3,e6efad379be046779b363be07120fb3b,108,Coffee Shop,Drink,33.61045,-112.147466,Phoenix,US
4b6c79fdf964a520433d2ce3,d3290a46c9eb4cb99ce99764282e277c,232,Office,Professional & Other Places,33.395368,-111.959878,Phoenix,US
4e559d4fe4cd779e8338d337,9a05945e7e7b4b53b34196d9b90167ec,217,Coworking Space,Professional & Other Places,33.455487,-111.965726,Phoenix,US
42474900f964a52084201fe3,5f1f19a541254cd7b23089e3fbdc26e1,267,University,College & University,33.608982,-112.161211,Phoenix,US
4a66768cf964a52097c81fe3,725570cd0acc4d93ad23408f11cfc934,114,Gym / Fitness Center,Outdoors & Recreation,33.45291,-112.07553,Phoenix,US
449e9fb9f964a520c0341fe3,d10b904561624510ac517c143d3ec50c,119,Airport,Travel & Transport,33.435624,-112.003066,Phoenix,US
4b155041f964a52038b023e3,f17a5a4561a1465aac7dd895f51f2db8,186,College Football Field,College & University,33.527515,-112.262635,Phoenix,US
4f342a26e4b0935810c13353,63d9312cc53145078f913e313ae05925,280,Casino,Arts & Entertainment,33.39432,-111.959693,Phoenix,US
4aba4c07f964a520c78020e3,ddd9bf147a654b719b76797b0c8baafd,275,General College & University,College & University,33.410859,-112.015503,Phoenix,US
4ae0a43af964a520318121e3,c8f5a88cbd0d4c2a9768889ee697d478,148,Convenience Store,Shop & Service,33.579529,-112.098983,Phoenix,US
4a4ea188f964a520d6ae1fe3,af2a3ecb7a1c46e8b136a82d4110ac64,290,Mexican Restaurant,Food,33.491267,-112.079237,Phoenix,US
4b11d511f964a520a58523e3,82dd00b83524497bab2d367f1e2b36ab,287,Grocery Store,Shop & Service,33.597462,-112.150016,Phoenix,US
4a7a401ff964a520fce81fe3,8cf164ecb8df4183a8f156da8017a5a5,197,Hiking Trail,Outdoors & Recreation,33.539612,-112.023147,Phoenix,US
4bdab3573904a593710d479e,d11166e1718548a090ac0d4a663e8907,289,Tech Startup,Professional & Other Places,33.434306,-112.207918,Phoenix,US
4c2f7bf5a0ced13ada9a106e,d3290a46c9eb4cb99ce99764282e277c,232,Office,Professional & Other Places,33.425918,-111.961829,Phoenix,US
4c4b46759e6dbe9a5ac7d10b,820320f0543841c1bd3e7508852147f2,193,Gas Station / Garage,Shop & Service,33.49515,-112.057478,Phoenix,US
4a84fdf5f964a520fcfd1fe3,134ed7259fbb41fd9b5902acbb6be6d1,68,Department Store,Shop & Service,33.520897,-112.098139,Phoenix,US
4ab918c4f964a520fb7d20e3,82850b4350904bf7ae2306ab043e7754,282,Sports Bar,Nightlife Spot,33.445671000000004,-112.066866,Phoenix,US
4c5750ee2308be9ac3ef586c,d3290a46c9eb4cb99ce99764282e277c,232,Office,Professional & Other Places,33.393908,-111.959419,Phoenix,US
4baa8c7bf964a520a6733ae3,53efab68625543b88fe4eb1111a86dd7,66,Fast Food Restaurant,Food,33.495153,-112.061797,Phoenix,US
414b7a80f964a520d01c1fe3,e6efad379be046779b363be07120fb3b,108,Coffee Shop,Drink,33.500469,-112.074053,Phoenix,US
4e570336fa7624d9bbab93a9,8587dc8e63084709b52cfe210e318ea0,107,Fried Chicken Joint,Food,33.5814,-112.118829,Phoenix,US
4bad5e11f964a520c04a3be3,28e6f80ad4054eda8341b3a553212021,23,Japanese Restaurant,Food,33.533429,-112.261253,Phoenix,US
4ed561329adf3fc7afcb62b3,97cbed00dcbb4a50be73e5ab5f007309,149,Dance Studio,Arts & Entertainment,33.640802,-112.120655,Phoenix,US
4e6bc4edae609509560e72a2,4331c0b145b54e08954ad86768e5526d,236,Burger Joint,Food,33.538074,-112.063149,Phoenix,US
4a837a65f964a5203ffb1fe3,a0789738c36845869f3ce75c08096039,88,Miscellaneous Shop,Shop & Service,33.390549,-112.136915,Phoenix,US
4aec5f71f964a52071c621e3,0b930a0245ff477a933890dbbe344d0f,227,Train Station,Travel & Transport,33.520454,-112.099745,Phoenix,US
4c85b06347cc224bce9ba39f,0b5817ff78e943bc9fd7436a113f0a6e,279,City,Outdoors & Recreation,33.448251,-112.07376200000002,Phoenix,US
472eda7ef964a520094c1fe3,d0304d4e99ef4d63afae4071a1a26ce4,2,Baseball Stadium,Arts & Entertainment,33.445515,-112.066748,Phoenix,US
4a7620dbf964a52054e21fe3,cae079240fe94f6da2d9525b8274c175,34,Mall,Shop & Service,33.522793,-112.09548,Phoenix,US
4edd5b7c0aaf49e02d1c3a19,af2a3ecb7a1c46e8b136a82d4110ac64,290,Mexican Restaurant,Food,33.448111,-112.074234,Phoenix,US
4e8a490fdab4414a6b0172e1,12104e23b34f4b659166af7c1fca1b2a,245,Home (private),Residence,33.661436,-112.077445,Phoenix,US
4b6de390f964a52005992ce3,53efab68625543b88fe4eb1111a86dd7,66,Fast Food Restaurant,Food,33.610499,-112.12017,Phoenix,US
4b110ff3f964a520d47723e3,c8f5a88cbd0d4c2a9768889ee697d478,148,Convenience Store,Shop & Service,33.508708,-112.273333,Phoenix,US
4b0ab6f9f964a520d12623e3,ddd9bf147a654b719b76797b0c8baafd,275,General College & University,College & University,33.673746,-112.077826,Phoenix,US
4bf6dca2508c0f4727003d31,12104e23b34f4b659166af7c1fca1b2a,245,Home (private),Residence,33.584206,-112.148983,Phoenix,US
4b155042f964a52039b023e3,b8bdee8af7144aeaa3bbb9f26b30a227,219,Hockey Arena,Arts & Entertainment,33.531879,-112.261133,Phoenix,US
4f314b3ce4b010a3c0031649,82dd00b83524497bab2d367f1e2b36ab,287,Grocery Store,Shop & Service,33.641563,-112.080027,Phoenix,US
4f5ffa96e4b0f492ad03a355,d3290a46c9eb4cb99ce99764282e277c,232,Office,Professional & Other Places,33.491809,-112.078933,Phoenix,US
4b911535f964a520e4a233e3,633893add8f143da91cc4499bc69f825,120,High School,Professional & Other Places,33.656549,-112.04381,Phoenix,US
4b5df632f964a520367629e3,82dd00b83524497bab2d367f1e2b36ab,287,Grocery Store,Shop & Service,33.52480300000001,-112.20416000000002,Phoenix,US
4dc364a11f6ef43b89e2d8bd,12104e23b34f4b659166af7c1fca1b2a,245,Home (private),Residence,33.642392,-112.065522,Phoenix,US
4df0b3a8fa76042fed6f4b0b,16cc1f7d21c748beafcc3a4e0a4c770f,14,Bar,Nightlife Spot,33.447552,-112.072593,Phoenix,US
4bfb637b8f32ef3b981605aa,0b930a0245ff477a933890dbbe344d0f,227,Train Station,Travel & Transport,33.501412,-112.073821,Phoenix,US
4f36fb6ce4b0948a81a13608,12104e23b34f4b659166af7c1fca1b2a,245,Home (private),Residence,33.661436,-112.077445,Phoenix,US
4c2e27dc260bc9289b341bd3,da5c52ae1a514f07be40e2039a1d8302,357,Residential Building (Apartment / Condo),Residence,33.501622999999995,-112.074397,Phoenix,US
4baa3545f964a52057533ae3,725570cd0acc4d93ad23408f11cfc934,114,Gym / Fitness Center,Outdoors & Recreation,33.457175,-112.065001,Phoenix,US
4d1f5638e56f6ea8ad936c1d,12104e23b34f4b659166af7c1fca1b2a,245,Home (private),Residence,33.53992,-112.101291,Phoenix,US
4e5f99148877f0d84af5212e,c61ad108db1a42e4bb5266a95b08dc14,51,Parking,Professional & Other Places,33.441875,-111.95458700000002,Phoenix,US
4f29b962e4b018893929a6fc,e8207cc6255e4e30a0c3afc4631f263f,138,Cocktail Bar,Nightlife Spot,33.494188,-112.003632,Phoenix,US
4bba8cd0b35776b0d01bcb01,725570cd0acc4d93ad23408f11cfc934,114,Gym / Fitness Center,Outdoors & Recreation,33.639558,-112.011416,Phoenix,US
4adcd7bdf964a520633021e3,0935da85d4ae4f6cbebd37d1df042005,185,Bank,Shop & Service,33.435559999999995,-112.040377,Phoenix,US
4b5e1745f964a5201b7d29e3,a0789738c36845869f3ce75c08096039,88,Miscellaneous Shop,Shop & Service,33.420481,-112.223196,Phoenix,US
4bb2d6724019a5938d5f37b8,0fcd0a6c336f4d719943e5678a11f30a,308,Taco Place,Food,33.422546000000004,-112.225068,Phoenix,US
4f31c0a1e4b09c40b42e5492,12104e23b34f4b659166af7c1fca1b2a,245,Home (private),Residence,33.529272,-112.101291,Phoenix,US
4f36aadde4b00d9f9592ecf7,12104e23b34f4b659166af7c1fca1b2a,245,Home (private),Residence,33.384525,-112.077445,Phoenix,US
4e4fe7f1d4c0b6da5d8474c8,d3290a46c9eb4cb99ce99764282e277c,232,Office,Professional & Other Places,33.625215000000004,-112.112495,Phoenix,US
4ed58ced722eff15bf6ec897,12104e23b34f4b659166af7c1fca1b2a,245,Home (private),Residence,33.559477,-112.053599,Phoenix,US
4ae9cd0ff964a5208fb621e3,d28ecd5a004e4972896b64560c14990a,278,Light Rail,Travel & Transport,33.486813,-112.073891,Phoenix,US
4b96ef4cf964a520e8ee34e3,4331c0b145b54e08954ad86768e5526d,236,Burger Joint,Food,33.507684000000005,-112.039867,Phoenix,US
4c0c793fb1b676b0d437df86,0935da85d4ae4f6cbebd37d1df042005,185,Bank,Shop & Service,33.412511,-111.964223,Phoenix,US
4bf1afcad39ad13aa688aa0e,725570cd0acc4d93ad23408f11cfc934,114,Gym / Fitness Center,Outdoors & Recreation,33.592806,-111.980128,Phoenix,US
4e686baa483bc776306af822,12104e23b34f4b659166af7c1fca1b2a,245,Home (private),Residence,33.652501,-112.125137,Phoenix,US
4abdee78f964a520838b20e3,82dd00b83524497bab2d367f1e2b36ab,287,Grocery Store,Shop & Service,33.488271999999995,-112.081581,Phoenix,US
4bc904fc937ca593ee0fa592,633893add8f143da91cc4499bc69f825,120,High School,Professional & Other Places,33.537217,-112.107861,Phoenix,US
4e357d37fa7656ba31711cdd,3dc3421e5ea54a9a8aa960cd910d0fff,249,Professional & Other Places,Professional & Other Places,33.480940999999994,-112.005495,Phoenix,US
4bd77f77304fce7206a433ab,da5c52ae1a514f07be40e2039a1d8302,357,Residential Building (Apartment / Condo),Residence,33.487017,-112.084934,Phoenix,US
4d3f5ed34677548175134ef4,092e201bb63a4b6eab7c08ad32a2d169,16,Automotive Shop,Shop & Service,33.509062,-112.091816,Phoenix,US
4b153782f964a5206ca923e3,ebb3b187f7f4428cb11a4ee8769d806c,104,Electronics Store,Shop & Service,33.508107,-112.040374,Phoenix,US
4b833a52f964a5204ffe30e3,fc331a5b59d640c6bb463fdce01c0a1f,340,Building,Professional & Other Places,33.506809999999994,-112.07452,Phoenix,US
4d99fff2daec224b54636c3e,12104e23b34f4b659166af7c1fca1b2a,245,Home (private),Residence,33.517325,-111.993982,Phoenix,US
4aaebc5ff964a520146320e3,1578b1b9884a48ed84704593c292e3cd,54,Mediterranean Restaurant,Food,33.465549,-112.081647,Phoenix,US
4db61e645da3a76f446076d3,12104e23b34f4b659166af7c1fca1b2a,245,Home (private),Residence,33.461819,-112.005905,Phoenix,US
4cccd30c566aa093154424fd,4331c0b145b54e08954ad86768e5526d,236,Burger Joint,Food,33.510242,-112.0282,Phoenix,US
4c43db8af05e952170e3e3b3,a0789738c36845869f3ce75c08096039,88,Miscellaneous Shop,Shop & Service,33.538813,-112.20493700000002,Phoenix,US
4a82c5cdf964a52054f91fe3,d28ecd5a004e4972896b64560c14990a,278,Light Rail,Travel & Transport,33.448165,-111.98802,Phoenix,US
4b496a57f964a5206e6f26e3,48984814ad0d47e19df3a135f713e0a2,152,Strip Club,Nightlife Spot,33.486101,-112.122998,Phoenix,US
4f0fa5b6e4b0044a216c838c,d3290a46c9eb4cb99ce99764282e277c,232,Office,Professional & Other Places,33.394415,-111.959792,Phoenix,US
4c57b4c4744a0f47f2b0c9cb,da5c52ae1a514f07be40e2039a1d8302,357,Residential Building (Apartment / Condo),Residence,33.533882,-112.205764,Phoenix,US
4abd5667f964a520cb8920e3,0b930a0245ff477a933890dbbe344d0f,227,Train Station,Travel & Transport,33.448853,-112.073931,Phoenix,US
4c86832974d7b60cb7c9a4d8,4331c0b145b54e08954ad86768e5526d,236,Burger Joint,Food,33.44812,-112.074934,Phoenix,US
4c01e39c27dcc9285757e152,1578b1b9884a48ed84704593c292e3cd,54,Mediterranean Restaurant,Food,33.458791,-112.077595,Phoenix,US
4acf3fe9f964a520e5d220e3,d28ecd5a004e4972896b64560c14990a,278,Light Rail,Travel & Transport,33.447728000000005,-112.075071,Phoenix,US
4dfe3f79183806202654a639,af2a3ecb7a1c46e8b136a82d4110ac64,290,Mexican Restaurant,Food,33.55249,-112.099123,Phoenix,US
4f2cdbb0e4b03caf52386d8c,12104e23b34f4b659166af7c1fca1b2a,245,Home (private),Residence,33.546603000000005,-112.065522,Phoenix,US
4bf49df1e5eba59320f01f90,8563e867974e4fb6980a1161bf686856,298,Tanning Salon,Shop & Service,33.503024,-112.065675,Phoenix,US
4e653b5bd164ddd5e6f57db4,12104e23b34f4b659166af7c1fca1b2a,245,Home (private),Residence,33.476014,-112.101291,Phoenix,US
4b2c3701f964a520efc324e3,4331c0b145b54e08954ad86768e5526d,236,Burger Joint,Food,33.662059,-112.116761,Phoenix,US
4f77fbade4b06ff836b89b3c,12104e23b34f4b659166af7c1fca1b2a,245,Home (private),Residence,33.570124,-112.053599,Phoenix,US
4b808240f964a520a07830e3,4331c0b145b54e08954ad86768e5526d,236,Burger Joint,Food,33.639901,-112.067639,Phoenix,US
4b5f8695f964a52089bf29e3,134ed7259fbb41fd9b5902acbb6be6d1,68,Department Store,Shop & Service,33.551616,-112.179672,Phoenix,US
4d5ef64f865a224bc4b69885,12104e23b34f4b659166af7c1fca1b2a,245,Home (private),Residence,33.542149,-112.089368,Phoenix,US
44e119a0f964a52014371fe3,064daa50ba5d4246b72ea2f93a19a78a,354,Gay Bar,Nightlife Spot,33.50273,-112.064652,Phoenix,US
4a9ea594f964a520c23a20e3,d28ecd5a004e4972896b64560c14990a,278,Light Rail,Travel & Transport,33.446263,-112.069302,Phoenix,US
4a750c0af964a52060e01fe3,1dcc3451379f436394cf1db918f49f60,12,Convention Center,Professional & Other Places,33.449222,-112.069722,Phoenix,US
4c4cea15f5afa593347ab2d6,134ed7259fbb41fd9b5902acbb6be6d1,68,Department Store,Shop & Service,33.638813,-112.069111,Phoenix,US
4d9e33c20efda0934b2cac28,82850b4350904bf7ae2306ab043e7754,282,Sports Bar,Nightlife Spot,33.522971000000005,-112.049389,Phoenix,US
4ade0262f964a5204e6721e3,e53277d905564b2d80ec9eba0e73996b,324,General Entertainment,Arts & Entertainment,33.449234000000004,-112.076505,Phoenix,US
4d2dd4f1aa5c6ea89297b004,d1fb6539f4d24f8e9db891e67ed0bb07,75,Other Great Outdoors,Outdoors & Recreation,33.386446,-111.967721,Phoenix,US
4b523fcff964a520a07227e3,6eb1282a9ae54aa8879817b684e6c8ac,314,Bookstore,Shop & Service,33.538408000000004,-112.18373400000002,Phoenix,US
4e9105f0d3e3187fc3280877,12104e23b34f4b659166af7c1fca1b2a,245,Home (private),Residence,33.513635,-112.184751,Phoenix,US
4c44d8c92d3ec9b6b6782fae,7e3f285ebf70474db064b99025bac03d,277,Bowling Alley,Arts & Entertainment,33.447601,-112.074344,Phoenix,US
4b3d4b4ef964a520ca9125e3,82dd00b83524497bab2d367f1e2b36ab,287,Grocery Store,Shop & Service,33.581478000000004,-111.979103,Phoenix,US
4f400706e4b08b2472905ec8,9e136e5f03164be691fd822254f1c958,204,Neighborhood,Outdoors & Recreation,33.532775,-112.047593,Phoenix,US
4c049930f56c2d7f4e831e66,12104e23b34f4b659166af7c1fca1b2a,245,Home (private),Residence,33.504868,-111.946287,Phoenix,US
4c7828ec748cb71390fb3568,12104e23b34f4b659166af7c1fca1b2a,245,Home (private),Residence,33.622829,-112.113214,Phoenix,US
4b3fed0ef964a52043b225e3,064daa50ba5d4246b72ea2f93a19a78a,354,Gay Bar,Nightlife Spot,33.508874,-112.083721,Phoenix,US
413ba880f964a520891b1fe3,1962ee385567436d807d71312a7af69e,137,Rock Club,Arts & Entertainment,33.487399,-112.08238500000002,Phoenix,US
4a5e773bf964a520a0be1fe3,725570cd0acc4d93ad23408f11cfc934,114,Gym / Fitness Center,Outdoors & Recreation,33.506888000000004,-112.037276,Phoenix,US
4a7f61d9f964a520daf31fe3,134ed7259fbb41fd9b5902acbb6be6d1,68,Department Store,Shop & Service,33.510413,-112.266476,Phoenix,US
4b1c4b7bf964a520a70524e3,53efab68625543b88fe4eb1111a86dd7,66,Fast Food Restaurant,Food,33.50891,-112.265553,Phoenix,US
4e6f8bdda809952e23e9c3cf,12104e23b34f4b659166af7c1fca1b2a,245,Home (private),Residence,33.480920000000005,-112.017829,Phoenix,US
44e0acc6f964a52008371fe3,17320b59f8a54c3b8547c959e373b4eb,147,Restaurant,Food,33.422944,-111.951783,Phoenix,US
4f642e55e4b036e3e7baaf0d,12104e23b34f4b659166af7c1fca1b2a,245,Home (private),Residence,33.663666,-112.065522,Phoenix,US
4df969e2d22d964c6b9a1f38,da5c52ae1a514f07be40e2039a1d8302,357,Residential Building (Apartment / Condo),Residence,33.456845,-111.967215,Phoenix,US
4c0c4e266071a59371aae232,da5c52ae1a514f07be40e2039a1d8302,357,Residential Building (Apartment / Condo),Residence,33.542112,-112.263099,Phoenix,US
4f07ad40e4b0882d22570418,12104e23b34f4b659166af7c1fca1b2a,245,Home (private),Residence,33.476014,-112.101291,Phoenix,US
4a7bc3dff964a520c4eb1fe3,b8e3da9d74a940d1b2727f16b0522067,63,BBQ Joint,Food,33.533124,-112.260875,Phoenix,US
4c450c6fdcd61b8dc1477c56,fc331a5b59d640c6bb463fdce01c0a1f,340,Building,Professional & Other Places,33.396283000000004,-111.950925,Phoenix,US
4e659602d22d509a3af6a273,d3290a46c9eb4cb99ce99764282e277c,232,Office,Professional & Other Places,33.429967,-111.970592,Phoenix,US
4c0e91e975f99c748379ecc4,d3290a46c9eb4cb99ce99764282e277c,232,Office,Professional & Other Places,33.446609,-112.006886,Phoenix,US
4e3f5fe652b1a04aff31f558,7ab55411dbce49ccbf61c9545a64890a,92,Sandwich Place,Food,33.49543,-112.019881,Phoenix,US
4adb6b33f964a5203a2721e3,84fbba2b094c45a290db31d860e4e11d,195,Farmers Market,Shop & Service,33.495870000000004,-112.020042,Phoenix,US
4c0eb32e75f99c745482ecc4,d3290a46c9eb4cb99ce99764282e277c,232,Office,Professional & Other Places,33.480842,-111.988739,Phoenix,US
4c0ec81d7189c9289d11d9b6,12104e23b34f4b659166af7c1fca1b2a,245,Home (private),Residence,33.448497,-112.077445,Phoenix,US
4dbc16570cb691071c993e8c,d3290a46c9eb4cb99ce99764282e277c,232,Office,Professional & Other Places,33.441181,-111.958889,Phoenix,US
4bf447fd706e20a1b028a998,d3290a46c9eb4cb99ce99764282e277c,232,Office,Professional & Other Places,33.501528,-112.056681,Phoenix,US
4a3260c4f964a520449a1fe3,d3290a46c9eb4cb99ce99764282e277c,232,Office,Professional & Other Places,33.68450900000001,-112.094291,Phoenix,US
4bdf2124e75c0f47e3fac903,d3290a46c9eb4cb99ce99764282e277c,232,Office,Professional & Other Places,33.44239,-111.954756,Phoenix,US
4dd83121e4cd37c893bfa0b5,12104e23b34f4b659166af7c1fca1b2a,245,Home (private),Residence,33.621598,-112.005905,Phoenix,US
4de4eca37d8b2547eb3dab1d,4dc1ac7e345a4ba095a4cab9bc58292d,127,School,Professional & Other Places,33.530333,-112.058195,Phoenix,US
4caf54189cba9521362f92d9,8563e867974e4fb6980a1161bf686856,298,Tanning Salon,Shop & Service,33.655856,-112.062224,Phoenix,US
4b717ceff964a5203f492de3,d3290a46c9eb4cb99ce99764282e277c,232,Office,Professional & Other Places,33.42435,-111.996024,Phoenix,US
4c0690b32e80a593884b74f9,d3290a46c9eb4cb99ce99764282e277c,232,Office,Professional & Other Places,33.420604,-111.969893,Phoenix,US
4ae1c10cf964a5202a8721e3,e6efad379be046779b363be07120fb3b,108,Coffee Shop,Drink,33.442277000000004,-111.955506,Phoenix,US
4bfe844ef61dc9b67e87a0de,d3290a46c9eb4cb99ce99764282e277c,232,Office,Professional & Other Places,33.451931,-112.071009,Phoenix,US
4bc746c292b376b067604f3a,fee1b155d4b848a8a375e6868dc2242b,161,College Administrative Building,College & University,33.408316,-112.013855,Phoenix,US
4af07396f964a52031dc21e3,daef0aa2165f402ca84a64c1fe70c104,347,City Hall,Professional & Other Places,33.44853,-112.076563,Phoenix,US
4e8c9722469079cdfaeaf234,12104e23b34f4b659166af7c1fca1b2a,245,Home (private),Residence,33.514653,-112.065522,Phoenix,US
4d62ccea1ee8721e8f0cc521,12104e23b34f4b659166af7c1fca1b2a,245,Home (private),Residence,33.514653,-112.065522,Phoenix,US
4de834c3c65b72347a0b1a99,912480f995da48499415bf21720aa35e,226,Garden,Outdoors & Recreation,33.418031,-111.947816,Phoenix,US
4d7d4425d1c28eec5ac71a74,b2b672ba05b34e9fa0745a2de043d9f8,60,Jewelry Store,Shop & Service,33.624393,-112.030699,Phoenix,US
4c1a9e04b4e62d7f1a18d893,aab47d91a01b432aa2d5d2973bd9ac0e,240,Car Wash,Shop & Service,33.451744,-112.083129,Phoenix,US
4e3ffaa58877b00cfc6757e7,d3290a46c9eb4cb99ce99764282e277c,232,Office,Professional & Other Places,33.479328,-112.06981,Phoenix,US
4a918c24f964a520a51a20e3,eaddb3d18dd04b5182fecc6ac0ef219f,221,College Academic Building,College & University,33.452994,-112.073594,Phoenix,US
4e9e6f12b80311ce20899ba4,12104e23b34f4b659166af7c1fca1b2a,245,Home (private),Residence,33.584731,-112.089368,Phoenix,US
4303cf80f964a52013271fe3,cae079240fe94f6da2d9525b8274c175,34,Mall,Shop & Service,33.60250300000001,-111.983728,Phoenix,US
4f6fa37ee4b01d94feaf4d41,d3290a46c9eb4cb99ce99764282e277c,232,Office,Professional & Other Places,33.581751000000004,-112.008576,Phoenix,US
4ca23fb3750ca093d3c20e67,7116134b915945058a0bf129b1a99a48,32,Caf,Drink,33.412089,-112.01375,Phoenix,US
4b302880f964a52013f724e3,b8e3da9d74a940d1b2727f16b0522067,63,BBQ Joint,Food,33.561034,-112.115872,Phoenix,US
4a4d0858f964a52079ad1fe3,bfe53afadf5946498ef9af628547515c,248,Pizza Place,Food,33.502227000000005,-111.995743,Phoenix,US
4c47396731e41b8d5c194c35,c61ad108db1a42e4bb5266a95b08dc14,51,Parking,Professional & Other Places,33.482033,-112.090459,Phoenix,US
4e803d31b8f72f128eb57b23,fc331a5b59d640c6bb463fdce01c0a1f,340,Building,Professional & Other Places,33.399028,-111.949341,Phoenix,US
4a9acd1bf964a520cb3220e3,82dd00b83524497bab2d367f1e2b36ab,287,Grocery Store,Shop & Service,33.584752,-111.978859,Phoenix,US
4b40f475f964a52029be25e3,043264505aa546a7a8cbc7f6fffbad5e,326,Salad Place,Food,33.576377,-112.117944,Phoenix,US
4e7f9d419a52a0fcc38a3a26,dbd823ee65ec431899cb2a441ae6142f,238,Road,Travel & Transport,33.378158,-111.968274,Phoenix,US
4afdbaa6f964a520462a22e3,af2a3ecb7a1c46e8b136a82d4110ac64,290,Mexican Restaurant,Food,33.442442,-112.06598,Phoenix,US
4d8d1c7b788c5481c5c519fd,d3290a46c9eb4cb99ce99764282e277c,232,Office,Professional & Other Places,33.403201,-111.966039,Phoenix,US
4b0c7246f964a520753d23e3,de4bce34f0334017b2fb8d430e6c1913,202,College Residence Hall,College & University,33.453571999999994,-112.072392,Phoenix,US
4a9f6130f964a520213d20e3,d28ecd5a004e4972896b64560c14990a,278,Light Rail,Travel & Transport,33.509599,-112.09891299999998,Phoenix,US
4bda48eec79cc9286c697ee9,b7feb7cd921e4090858f2105033cbc61,250,Gym,Outdoors & Recreation,33.447897,-112.073556,Phoenix,US
4b25b646f964a520967524e3,cae079240fe94f6da2d9525b8274c175,34,Mall,Shop & Service,33.508481,-112.041364,Phoenix,US
4c3fcb29da3dc928e780c6b9,84fbba2b094c45a290db31d860e4e11d,195,Farmers Market,Shop & Service,33.639218,-112.071673,Phoenix,US
4e499690d4c0dae7bfc1c4a6,918247ac647246ba907fbe5f0e01c225,86,Art Gallery,Arts & Entertainment,33.427716,-111.973209,Phoenix,US
4b434117f964a5208edd25e3,725570cd0acc4d93ad23408f11cfc934,114,Gym / Fitness Center,Outdoors & Recreation,33.636953000000005,-112.071147,Phoenix,US
4cdf3fddf8a4a1438937ddbc,d1fb6539f4d24f8e9db891e67ed0bb07,75,Other Great Outdoors,Outdoors & Recreation,33.381933000000004,-112.0832,Phoenix,US
4ae22eb3f964a520898b21e3,82dd00b83524497bab2d367f1e2b36ab,287,Grocery Store,Shop & Service,33.510735,-112.085267,Phoenix,US
4b4e8298f964a5200ff026e3,65c2be14fae44efba124a3d1f6edd735,136,Italian Restaurant,Food,33.581339,-112.118189,Phoenix,US
472f0b7ff964a520104c1fe3,d0304d4e99ef4d63afae4071a1a26ce4,2,Baseball Stadium,Arts & Entertainment,33.448946,-111.955369,Phoenix,US
4d9f094f7f1b721e566f940f,f359c3fa78534f839ff7b9677c01517b,305,Airport Tram,Travel & Transport,33.43527,-111.983179,Phoenix,US
4b4ba41ff964a520a6a226e3,c8f5a88cbd0d4c2a9768889ee697d478,148,Convenience Store,Shop & Service,33.553448,-112.117723,Phoenix,US
4dae37a35da3cca6f0a5449d,43e6651381db4af09a9b65012b4644b5,272,Event Space,Professional & Other Places,33.50949,-112.073693,Phoenix,US
472edc25f964a5200a4c1fe3,f61eeed0b51040d49e94b6dac8ca42a9,111,Breakfast Spot,Food,33.457457,-112.072349,Phoenix,US
4b589c3ff964a520206128e3,f61eeed0b51040d49e94b6dac8ca42a9,111,Breakfast Spot,Food,33.509636,-112.07201,Phoenix,US
4bfd731ee529c9286ff2ba8c,1c70457360b5457d96d1d920f15cc5af,128,Fire Station,Professional & Other Places,33.445566,-112.057403,Phoenix,US
4a7e8cb4f964a52000f21fe3,134ed7259fbb41fd9b5902acbb6be6d1,68,Department Store,Shop & Service,33.496081,-112.172256,Phoenix,US
4cb0d0dfb4b0a35d36d24cce,092e201bb63a4b6eab7c08ad32a2d169,16,Automotive Shop,Shop & Service,33.508767,-112.049154,Phoenix,US
4b43e455f964a5205bed25e3,d1fb6539f4d24f8e9db891e67ed0bb07,75,Other Great Outdoors,Outdoors & Recreation,33.530112,-112.10478700000002,Phoenix,US
4ab906b1f964a520bb7d20e3,b8e73a846beb4e4e85195e50569576ac,131,Community College,College & University,33.483107000000004,-112.089171,Phoenix,US
4b7feedef964a520444530e3,53efab68625543b88fe4eb1111a86dd7,66,Fast Food Restaurant,Food,33.508728999999995,-112.046202,Phoenix,US
4e4c3de9d164e69742c94916,d3290a46c9eb4cb99ce99764282e277c,232,Office,Professional & Other Places,33.543236,-112.047897,Phoenix,US
4b4b3fcbf964a520839526e3,e6efad379be046779b363be07120fb3b,108,Coffee Shop,Drink,33.518296,-112.064629,Phoenix,US
4a5f8353f964a520c2bf1fe3,134ed7259fbb41fd9b5902acbb6be6d1,68,Department Store,Shop & Service,33.477308,-111.984715,Phoenix,US
4a575fa8f964a5200cb61fe3,e6efad379be046779b363be07120fb3b,108,Coffee Shop,Drink,33.453265,-112.072293,Phoenix,US
4f75c8b2e4b062e51d54e66c,c8f5a88cbd0d4c2a9768889ee697d478,148,Convenience Store,Shop & Service,33.480647,-112.033365,Phoenix,US
4b084658f964a520ef0723e3,14c35ac8254c4703895943dbbf38325d,198,Library,Professional & Other Places,33.57808,-112.119854,Phoenix,US
4a53c00af964a520b1b21fe3,af2a3ecb7a1c46e8b136a82d4110ac64,290,Mexican Restaurant,Food,33.488921000000005,-112.082997,Phoenix,US
4c2221e09a67a593f5f2db87,118bd12678694b2fbb1564053a43674d,269,Airport Lounge,Travel & Transport,33.436921000000005,-111.996818,Phoenix,US
4c190ba9fe5a76b067f80215,82dd00b83524497bab2d367f1e2b36ab,287,Grocery Store,Shop & Service,33.492577000000004,-112.288782,Phoenix,US
4a946353f964a520692120e3,d28ecd5a004e4972896b64560c14990a,278,Light Rail,Travel & Transport,33.442273,-111.95626,Phoenix,US
4aec87edf964a52057c821e3,d28ecd5a004e4972896b64560c14990a,278,Light Rail,Travel & Transport,33.495619,-112.073802,Phoenix,US
4a3d55d4f964a5201ea21fe3,af2a3ecb7a1c46e8b136a82d4110ac64,290,Mexican Restaurant,Food,33.377738,-111.971025,Phoenix,US
413ba880f964a5208c1b1fe3,1f3f74596c0449e99fb17b450309349a,329,Wings Joint,Food,33.451732,-112.069583,Phoenix,US
4a5fcb9cf964a5203cc01fe3,0528a5c7d0c84edc8f9a6f6dce00046e,188,Wine Bar,Nightlife Spot,33.512667,-112.074079,Phoenix,US
4a68b323f964a520d8ca1fe3,af2a3ecb7a1c46e8b136a82d4110ac64,290,Mexican Restaurant,Food,33.576255,-112.116437,Phoenix,US
4c07e61b009a0f474b3ae5bf,12104e23b34f4b659166af7c1fca1b2a,245,Home (private),Residence,33.578543,-112.065522,Phoenix,US
4a4a4729f964a520a4ab1fe3,e6efad379be046779b363be07120fb3b,108,Coffee Shop,Drink,33.509479,-112.07415,Phoenix,US
4b6b2bf1f964a52057f72be3,6eb1282a9ae54aa8879817b684e6c8ac,314,Bookstore,Shop & Service,33.51095,-112.074031,Phoenix,US
4a569b81f964a52085b51fe3,bfe53afadf5946498ef9af628547515c,248,Pizza Place,Food,33.638490000000004,-112.18174,Phoenix,US
4b196155f964a5204edc23e3,134ed7259fbb41fd9b5902acbb6be6d1,68,Department Store,Shop & Service,33.65982,-112.115825,Phoenix,US
4abfb942f964a520d89120e3,82850b4350904bf7ae2306ab043e7754,282,Sports Bar,Nightlife Spot,33.494619,-112.00243799999998,Phoenix,US
4bd896d751170f47a0c333e4,82dd00b83524497bab2d367f1e2b36ab,287,Grocery Store,Shop & Service,33.581192,-112.135212,Phoenix,US
4f038acab6348c9d30d1be87,12104e23b34f4b659166af7c1fca1b2a,245,Home (private),Residence,33.535458,-112.125137,Phoenix,US
4b53c3edf964a520baaa27e3,82dd00b83524497bab2d367f1e2b36ab,287,Grocery Store,Shop & Service,33.506809999999994,-112.041009,Phoenix,US
4c3f4f4cda3dc928f9b1c5b9,38b2b3ec4f7b4b638052ab4ce9c3b200,179,Police Station,Professional & Other Places,33.474373,-112.104964,Phoenix,US
4e374912483bda3eb11006e7,f12245572898439886377df1f8db3fde,156,American Restaurant,Food,33.611141,-112.120733,Phoenix,US
4b6f10d9f964a520adda2ce3,e6efad379be046779b363be07120fb3b,108,Coffee Shop,Drink,33.516345,-112.082831,Phoenix,US
4a3d9cdaf964a5208ba21fe3,29325c148c2944a2861e610014948ab0,43,Zoo,Arts & Entertainment,33.451853,-111.949053,Phoenix,US
4a4abb64f964a52023ac1fe3,134ed7259fbb41fd9b5902acbb6be6d1,68,Department Store,Shop & Service,33.600483000000004,-111.989822,Phoenix,US
4ade7633f964a520037621e3,82dd00b83524497bab2d367f1e2b36ab,287,Grocery Store,Shop & Service,33.521415000000005,-112.09548,Phoenix,US
4b343cd0f964a5206a2625e3,16cc1f7d21c748beafcc3a4e0a4c770f,14,Bar,Nightlife Spot,33.643001,-112.031292,Phoenix,US
4d94ec905241a1cdd7d56a4b,fc331a5b59d640c6bb463fdce01c0a1f,340,Building,Professional & Other Places,33.448407,-111.98407,Phoenix,US
4cb0b5641463a143b7649fa9,d69203a6830e4d51adfbdaf71754266c,207,Dessert Shop,Food,33.53799,-112.057056,Phoenix,US
4f3e872fe4b03dd0244f9ba5,82dd00b83524497bab2d367f1e2b36ab,287,Grocery Store,Shop & Service,33.640704,-112.18303600000002,Phoenix,US
413ba880f964a520b41b1fe3,82850b4350904bf7ae2306ab043e7754,282,Sports Bar,Nightlife Spot,33.448643,-112.071453,Phoenix,US
4ca6db0444a8224bbabd0740,da5c52ae1a514f07be40e2039a1d8302,357,Residential Building (Apartment / Condo),Residence,33.39020900000001,-111.963816,Phoenix,US
4ee8d90c77c83054d92c20ff,97cbed00dcbb4a50be73e5ab5f007309,149,Dance Studio,Arts & Entertainment,33.570172,-112.120163,Phoenix,US
4b6115d1f964a52019092ae3,51c5a79f4a3c43628c3e944286e49400,135,Movie Theater,Arts & Entertainment,33.4784,-111.996474,Phoenix,US
4b5f4c6ef964a520aeb229e3,29d6e9a35fd04c47a217efed60a14877,49,Church,Professional & Other Places,33.609937,-112.031989,Phoenix,US
4b1702a8f964a520dac023e3,7116134b915945058a0bf129b1a99a48,32,Caf,Drink,33.579848,-112.123932,Phoenix,US
4b155041f964a52037b023e3,985200d9350441489eebebbc33dac743,21,Basketball Stadium,Arts & Entertainment,33.445829,-112.071168,Phoenix,US
4b919351f964a520d8c633e3,9732d1d738ab4ae5b231dbccc73f386f,177,Hospital,Professional & Other Places,33.525239,-112.102394,Phoenix,US
4d1439d86c8b5481b56ad5cc,3922c68bbdfe4a70aa159aeb86bd255b,117,Mountain,Outdoors & Recreation,33.51478,-111.961661,Phoenix,US
4b639970f964a52001862ae3,82dd00b83524497bab2d367f1e2b36ab,287,Grocery Store,Shop & Service,33.565138,-112.253954,Phoenix,US
4f6d235ce4b0e14a3eb9e871,12104e23b34f4b659166af7c1fca1b2a,245,Home (private),Residence,33.663135,-112.125137,Phoenix,US
4f36e1ede4b039c3c1e940cf,8cf164ecb8df4183a8f156da8017a5a5,197,Hiking Trail,Outdoors & Recreation,33.378364000000005,-112.139846,Phoenix,US
4b3feca5f964a5203cb225e3,bfe53afadf5946498ef9af628547515c,248,Pizza Place,Food,33.538059000000004,-112.055236,Phoenix,US
413ba880f964a520a11b1fe3,16cc1f7d21c748beafcc3a4e0a4c770f,14,Bar,Nightlife Spot,33.612761,-112.012525,Phoenix,US
4b299c43f964a520aea124e3,f12245572898439886377df1f8db3fde,156,American Restaurant,Food,33.509501,-112.073262,Phoenix,US
4ae726bff964a520e5a821e3,c8f5a88cbd0d4c2a9768889ee697d478,148,Convenience Store,Shop & Service,33.53818,-112.101847,Phoenix,US
4a86ed82f964a520ab0120e3,134ed7259fbb41fd9b5902acbb6be6d1,68,Department Store,Shop & Service,33.636828,-112.184701,Phoenix,US
4e8a0dc45c5c370ff4894f15,0a282a77d5904bb99a5985728f6d7b7d,6,Vegetarian / Vegan Restaurant,Food,33.470165,-112.065333,Phoenix,US
44c8c318f964a520ed351fe3,f12245572898439886377df1f8db3fde,156,American Restaurant,Food,33.491616,-112.073432,Phoenix,US
4eaae2e41081603000397bd8,32b784165f5246c8bb4b2b6c7eeb3132,338,Performing Arts Venue,Arts & Entertainment,33.505868,-112.0734,Phoenix,US
4b39b632f964a520ac5e25e3,53efab68625543b88fe4eb1111a86dd7,66,Fast Food Restaurant,Food,33.476735,-111.986561,Phoenix,US
4bf5e5aa5e800f474684e6d4,af2a3ecb7a1c46e8b136a82d4110ac64,290,Mexican Restaurant,Food,33.624737,-112.129855,Phoenix,US
4b7c4317f964a52026882fe3,41b89dc57f6c441cbfa63d7e8ee1d7a1,334,French Restaurant,Food,33.63932,-112.180031,Phoenix,US
4a9586d9f964a520832320e3,6eb1282a9ae54aa8879817b684e6c8ac,314,Bookstore,Shop & Service,33.554056,-112.101059,Phoenix,US
472f0debf964a520124c1fe3,ae687552505e43c7a99d4f3a77bb130d,288,Multiplex,Arts & Entertainment,33.453571999999994,-112.069194,Phoenix,US
4b0dc7ebf964a520055023e3,82dd00b83524497bab2d367f1e2b36ab,287,Grocery Store,Shop & Service,33.478967,-111.984873,Phoenix,US
4f23430fe4b05160ada59bbf,16cc1f7d21c748beafcc3a4e0a4c770f,14,Bar,Nightlife Spot,33.59773,-111.978562,Phoenix,US
4b8ef112f964a5200c4033e3,82dd00b83524497bab2d367f1e2b36ab,287,Grocery Store,Shop & Service,33.379083,-111.977258,Phoenix,US
413ba880f964a520f81a1fe3,b611c4ea12d64b6293c45943f6ed2e5f,206,Karaoke Bar,Nightlife Spot,33.521742,-112.064617,Phoenix,US
4a7d1893f964a5207eee1fe3,6e03750d63eb4afa9c0a00b350ceca31,370,Pub,Nightlife Spot,33.450249,-112.074298,Phoenix,US
4ed298dc93ad987b4faccac2,12104e23b34f4b659166af7c1fca1b2a,245,Home (private),Residence,33.565671,-112.077445,Phoenix,US
4f0bffb4e4b0baf8306c49d7,990da1c80a024e73bdcb1496c08293a5,173,Field,Outdoors & Recreation,33.501437,-112.07413,Phoenix,US
4bd6841c5631c9b6740ca630,82850b4350904bf7ae2306ab043e7754,282,Sports Bar,Nightlife Spot,33.612087,-112.169123,Phoenix,US
4bd264df462cb7136066dc07,f61eeed0b51040d49e94b6dac8ca42a9,111,Breakfast Spot,Food,33.378734,-111.969037,Phoenix,US
4b9c0185f964a520ea3f36e3,064daa50ba5d4246b72ea2f93a19a78a,354,Gay Bar,Nightlife Spot,33.501243,-112.082926,Phoenix,US
4cba12f9c7228cfab2af14ce,e6efad379be046779b363be07120fb3b,108,Coffee Shop,Drink,33.458343,-112.067778,Phoenix,US
4a6695cbf964a520c0c81fe3,064daa50ba5d4246b72ea2f93a19a78a,354,Gay Bar,Nightlife Spot,33.490891,-112.047951,Phoenix,US
4ddf0eca1f6ed1828c4c90c1,12104e23b34f4b659166af7c1fca1b2a,245,Home (private),Residence,33.609956,-112.125137,Phoenix,US
4b2da880f964a5201cda24e3,16cc1f7d21c748beafcc3a4e0a4c770f,14,Bar,Nightlife Spot,33.530649,-112.18583999999998,Phoenix,US
4f8158ace4b01e69d7cf7ecd,12104e23b34f4b659166af7c1fca1b2a,245,Home (private),Residence,33.491577,-112.017829,Phoenix,US
4b1bf976f964a520eaff23e3,e6efad379be046779b363be07120fb3b,108,Coffee Shop,Drink,33.581457,-112.12336,Phoenix,US
4abf8218f964a520ef9020e3,e6efad379be046779b363be07120fb3b,108,Coffee Shop,Drink,33.523467,-112.047133,Phoenix,US
4f63dcb3e4b036e3e774c83a,12104e23b34f4b659166af7c1fca1b2a,245,Home (private),Residence,33.566852000000004,-112.184751,Phoenix,US
4bba2fff1261d13acb56ea98,e83d090079ac4ed5a09a54ff4ae63724,372,Park,Outdoors & Recreation,33.352255,-112.071705,Phoenix,US
4aea537cf964a52006bb21e3,f12245572898439886377df1f8db3fde,156,American Restaurant,Food,33.523466,-112.022827,Phoenix,US
4c3d1789980320a150a68be4,f61eeed0b51040d49e94b6dac8ca42a9,111,Breakfast Spot,Food,33.494989000000004,-111.97978,Phoenix,US
4b2a5b7ff964a520aca724e3,e6efad379be046779b363be07120fb3b,108,Coffee Shop,Drink,33.465888,-112.221479,Phoenix,US
4a47ecabf964a5204faa1fe3,4333217313894da9950a075d0f1c0268,101,Resort,Travel & Transport,33.52349,-112.022567,Phoenix,US
4b88b2eaf964a520720932e3,29d6e9a35fd04c47a217efed60a14877,49,Church,Professional & Other Places,33.459002000000005,-112.074987,Phoenix,US
4aefbf37f964a5201fda21e3,d65836ca9e304c19b593a09a5653bad4,359,Hotel,Travel & Transport,33.480737,-112.072307,Phoenix,US
4b060634f964a520abe722e3,f12245572898439886377df1f8db3fde,156,American Restaurant,Food,33.58138,-112.12254,Phoenix,US
4c746ec9604a3704a0208049,29d6e9a35fd04c47a217efed60a14877,49,Church,Professional & Other Places,33.551994,-112.240384,Phoenix,US
4ba5230df964a52055e238e3,134ed7259fbb41fd9b5902acbb6be6d1,68,Department Store,Shop & Service,33.551883000000004,-112.057972,Phoenix,US
4b51e1a1f964a5206e5927e3,e83d090079ac4ed5a09a54ff4ae63724,372,Park,Outdoors & Recreation,33.576442,-112.190752,Phoenix,US
4becdb1616e99c74c67208e2,7e3f285ebf70474db064b99025bac03d,277,Bowling Alley,Arts & Entertainment,33.566899,-112.056014,Phoenix,US
4a8a0851f964a520b50920e3,51c5a79f4a3c43628c3e944286e49400,135,Movie Theater,Arts & Entertainment,33.666381,-112.124238,Phoenix,US
4b5b1f8cf964a520bae428e3,82dd00b83524497bab2d367f1e2b36ab,287,Grocery Store,Shop & Service,33.639328000000006,-112.064267,Phoenix,US
4a595b91f964a5204bb91fe3,f12245572898439886377df1f8db3fde,156,American Restaurant,Food,33.506915,-112.074183,Phoenix,US
4bccb431937ca593679bab92,fc331a5b59d640c6bb463fdce01c0a1f,340,Building,Professional & Other Places,33.487904,-112.073163,Phoenix,US
4b08cecff964a520781223e3,c8f5a88cbd0d4c2a9768889ee697d478,148,Convenience Store,Shop & Service,33.510101,-111.995772,Phoenix,US
4c3f2dc48d99b713c4151b06,da5c52ae1a514f07be40e2039a1d8302,357,Residential Building (Apartment / Condo),Residence,33.488049,-112.057723,Phoenix,US
4bbea1d8ba9776b0e716fec8,820320f0543841c1bd3e7508852147f2,193,Gas Station / Garage,Shop & Service,33.611446,-112.110999,Phoenix,US
4abce4aef964a520948720e3,e6efad379be046779b363be07120fb3b,108,Coffee Shop,Drink,33.483307,-112.075038,Phoenix,US
4b74acaaf964a520b5eb2de3,c8f5a88cbd0d4c2a9768889ee697d478,148,Convenience Store,Shop & Service,33.566956,-112.255583,Phoenix,US
4b5b5a5bf964a5200ef728e3,ea13a31b9c984f549d7bb4e63cf51815,310,Hardware Store,Shop & Service,33.609365000000004,-112.121572,Phoenix,US
4ada2402f964a520001f21e3,ef84385914bb4543ba1bedea47f20dab,299,Seafood Restaurant,Food,33.378741999999995,-111.966305,Phoenix,US
4a7148fff964a52035d91fe3,82dd00b83524497bab2d367f1e2b36ab,287,Grocery Store,Shop & Service,33.493665,-112.201653,Phoenix,US
4b944111f964a520627134e3,12104e23b34f4b659166af7c1fca1b2a,245,Home (private),Residence,33.546104,-112.125137,Phoenix,US
4bd768a2e914a593bc2f51fa,78ec05ae74f74999bc5765bae12b422a,351,Airport Terminal,Travel & Transport,33.436060999999995,-111.996818,Phoenix,US
4bd5f1b6637ba5930156f770,e9eda9dceecd4487a2e88f31d0619ae0,220,Medical Center,Professional & Other Places,33.452502,-111.989461,Phoenix,US
4bd1ad049854d13a1deff94d,3c0ff4b9c9a2420c939930f37b0dc10a,110,Elementary School,Professional & Other Places,33.540806,-112.035426,Phoenix,US
4add25cbf964a5204a6421e3,b7feb7cd921e4090858f2105033cbc61,250,Gym,Outdoors & Recreation,33.510121000000005,-111.984477,Phoenix,US
4ae33881f964a520de9121e3,f61eeed0b51040d49e94b6dac8ca42a9,111,Breakfast Spot,Food,33.483599,-112.074834,Phoenix,US
4f394b2ce4b0cc4ce569a3ec,e6efad379be046779b363be07120fb3b,108,Coffee Shop,Drink,33.448078,-112.074252,Phoenix,US
4b7d5a11f964a520aab92fe3,d3290a46c9eb4cb99ce99764282e277c,232,Office,Professional & Other Places,33.637174,-112.175818,Phoenix,US
4b717a43f964a520bb482de3,d3290a46c9eb4cb99ce99764282e277c,232,Office,Professional & Other Places,33.452653999999995,-112.071294,Phoenix,US
4bb4cb82613fb713353294e6,9732d1d738ab4ae5b231dbccc73f386f,177,Hospital,Professional & Other Places,33.495618,-112.067562,Phoenix,US
4be82ac89a54a593569b0911,d3290a46c9eb4cb99ce99764282e277c,232,Office,Professional & Other Places,33.551492,-112.048816,Phoenix,US
4f6b5eabe4b0bcd82682d10c,b5bf5c8b128b4b2fb0767449b0f0d27c,252,Conference Room,Professional & Other Places,33.517197,-112.111679,Phoenix,US
4bb51bd7ef159c74074874f7,0935da85d4ae4f6cbebd37d1df042005,185,Bank,Shop & Service,33.512852,-112.09942,Phoenix,US
4abbac1ff964a520528420e3,134ed7259fbb41fd9b5902acbb6be6d1,68,Department Store,Shop & Service,33.466497,-112.273965,Phoenix,US
4d5d68fee7f754816da42497,da2e87576fcf4ec08be0fa87dca925d5,79,Mobile Phone Shop,Shop & Service,33.480583,-112.021435,Phoenix,US
4f723eb7e4b017194f908506,d3290a46c9eb4cb99ce99764282e277c,232,Office,Professional & Other Places,33.677005,-112.104575,Phoenix,US
4acb5a15f964a52089c320e3,17320b59f8a54c3b8547c959e373b4eb,147,Restaurant,Food,33.52376,-112.047595,Phoenix,US
4c3e0f406faac9b672b10d76,5785dfae4a5a4d7e9a6569237fe4a5b6,160,Student Center,College & University,33.569496,-112.190773,Phoenix,US
4af25bccf964a52086e721e3,134ed7259fbb41fd9b5902acbb6be6d1,68,Department Store,Shop & Service,33.596748,-111.978621,Phoenix,US
4bf02101d4e4d13a12e215a7,3c2f36a0109841abbf533db448dde3db,99,Gift Shop,Shop & Service,33.43736,-111.999649,Phoenix,US
4b0c4a7cf964a520943a23e3,eaddb3d18dd04b5182fecc6ac0ef219f,221,College Academic Building,College & University,33.453621000000005,-112.073396,Phoenix,US
4acc99c3f964a52010c920e3,82dd00b83524497bab2d367f1e2b36ab,287,Grocery Store,Shop & Service,33.510441,-111.985665,Phoenix,US
4e17156852b1091958eb8c6f,d3290a46c9eb4cb99ce99764282e277c,232,Office,Professional & Other Places,33.684691,-112.094237,Phoenix,US
4aa16091f964a520754020e3,53efab68625543b88fe4eb1111a86dd7,66,Fast Food Restaurant,Food,33.393262,-111.977777,Phoenix,US
4af5ccebf964a52004fd21e3,14c35ac8254c4703895943dbbf38325d,198,Library,Professional & Other Places,33.462897,-112.072884,Phoenix,US
4a998686f964a520dc2e20e3,af2a3ecb7a1c46e8b136a82d4110ac64,290,Mexican Restaurant,Food,33.597181,-112.036194,Phoenix,US
4d41ea48aed776eb43a86897,da2e87576fcf4ec08be0fa87dca925d5,79,Mobile Phone Shop,Shop & Service,33.602683,-111.98368,Phoenix,US
4c9840ea07916dcb66ddea1b,16cc1f7d21c748beafcc3a4e0a4c770f,14,Bar,Nightlife Spot,33.553268,-112.057136,Phoenix,US
4a32c3b1f964a5208b9a1fe3,82dd00b83524497bab2d367f1e2b36ab,287,Grocery Store,Shop & Service,33.572303000000005,-112.060922,Phoenix,US
4bc50d6a6cccd13aceb2ff8b,da5c52ae1a514f07be40e2039a1d8302,357,Residential Building (Apartment / Condo),Residence,33.634773,-112.067562,Phoenix,US
4b1c8121f964a520f80724e3,82dd00b83524497bab2d367f1e2b36ab,287,Grocery Store,Shop & Service,33.538897,-112.062468,Phoenix,US
413ba880f964a520131c1fe3,bfe53afadf5946498ef9af628547515c,248,Pizza Place,Food,33.538693,-112.064192,Phoenix,US
4b19c434f964a520c6e323e3,82dd00b83524497bab2d367f1e2b36ab,287,Grocery Store,Shop & Service,33.378281,-112.100907,Phoenix,US
4a902c98f964a520571620e3,cae079240fe94f6da2d9525b8274c175,34,Mall,Shop & Service,33.533293,-112.261047,Phoenix,US
4c38db12a52cb713407b5f26,5e930312803d481ca2d765dfe8d703fa,378,Pet Store,Shop & Service,33.551825,-112.182349,Phoenix,US
4a6cc843f964a520a0d11fe3,cae079240fe94f6da2d9525b8274c175,34,Mall,Shop & Service,33.382863,-111.964846,Phoenix,US
4a46d6f7f964a5208ea91fe3,82dd00b83524497bab2d367f1e2b36ab,287,Grocery Store,Shop & Service,33.509996,-112.07222,Phoenix,US
4a358477f964a520169d1fe3,af2a3ecb7a1c46e8b136a82d4110ac64,290,Mexican Restaurant,Food,33.640995000000004,-112.131352,Phoenix,US
4f77657be4b040208c2e92f4,07c92d43113b47129b9de98e1fcf4774,297,Housing Development,Residence,33.50192,-112.02883500000002,Phoenix,US
4bd4ee2a6798ef3b3cb8628d,12104e23b34f4b659166af7c1fca1b2a,245,Home (private),Residence,33.483138000000004,-112.005905,Phoenix,US
4a81f893f964a52028f81fe3,bfe53afadf5946498ef9af628547515c,248,Pizza Place,Food,33.421621,-111.946789,Phoenix,US
4d7e10a83633a093f59c779d,6e03750d63eb4afa9c0a00b350ceca31,370,Pub,Nightlife Spot,33.466866,-112.286322,Phoenix,US
4a7fa1f6f964a5206af41fe3,9f035cf56348426095efab7b9de4957d,42,Lounge,Nightlife Spot,33.494507,-111.995038,Phoenix,US
4e89be544901b86fc2a4ecd8,378c0bf7698c4c76aa4003d83c7934e3,47,Chinese Restaurant,Food,33.49503,-112.061302,Phoenix,US
4d06672228926ea8556e75c2,da5c52ae1a514f07be40e2039a1d8302,357,Residential Building (Apartment / Condo),Residence,33.560643,-112.057712,Phoenix,US
4b6e4b46f964a520b0b62ce3,82850b4350904bf7ae2306ab043e7754,282,Sports Bar,Nightlife Spot,33.446003000000005,-111.963984,Phoenix,US
4bc08e9a74a9a5938b2dd0f6,78ec05ae74f74999bc5765bae12b422a,351,Airport Terminal,Travel & Transport,33.43547,-111.997032,Phoenix,US
4b130f62f964a520869323e3,134ed7259fbb41fd9b5902acbb6be6d1,68,Department Store,Shop & Service,33.526352,-112.132505,Phoenix,US
4f6977f0e4b0401846346aed,a491733f9d20449ebc7b35e88010a56a,139,Beer Garden,Nightlife Spot,33.584064,-111.971773,Phoenix,US
4b771104f964a520c7792ee3,e83d090079ac4ed5a09a54ff4ae63724,372,Park,Outdoors & Recreation,33.461731,-112.07534,Phoenix,US
4b5ccc58f964a520904429e3,9a05945e7e7b4b53b34196d9b90167ec,217,Coworking Space,Professional & Other Places,33.42701,-112.222518,Phoenix,US
4c9e4b28d3c2b60cebdec9bc,0935da85d4ae4f6cbebd37d1df042005,185,Bank,Shop & Service,33.493882,-112.292958,Phoenix,US
4e67ffea7d8b084ac794311f,3dc3421e5ea54a9a8aa960cd910d0fff,249,Professional & Other Places,Professional & Other Places,33.455002,-112.261242,Phoenix,US
4ccf5f30f6378cfa1c4caed6,7ab55411dbce49ccbf61c9545a64890a,92,Sandwich Place,Food,33.510314,-112.046524,Phoenix,US
4b492e50f964a5201c6926e3,725570cd0acc4d93ad23408f11cfc934,114,Gym / Fitness Center,Outdoors & Recreation,33.507723,-112.267546,Phoenix,US
4f15b6b8e4b045626b65d111,d1fb6539f4d24f8e9db891e67ed0bb07,75,Other Great Outdoors,Outdoors & Recreation,33.515246999999995,-112.190552,Phoenix,US
4b3a8847f964a520706925e3,e6efad379be046779b363be07120fb3b,108,Coffee Shop,Drink,33.465486,-112.082852,Phoenix,US
4b5c9a07f964a5202e3929e3,d3290a46c9eb4cb99ce99764282e277c,232,Office,Professional & Other Places,33.478747,-112.082748,Phoenix,US
4b576dcbf964a5202e3728e3,cae079240fe94f6da2d9525b8274c175,34,Mall,Shop & Service,33.575083,-112.12168,Phoenix,US
4b7c5125f964a520f18b2fe3,a0789738c36845869f3ce75c08096039,88,Miscellaneous Shop,Shop & Service,33.494997999999995,-112.056474,Phoenix,US
4de7dac5d16418879008be83,d3290a46c9eb4cb99ce99764282e277c,232,Office,Professional & Other Places,33.504938,-112.036374,Phoenix,US
48ba760cf964a520cb511fe3,912480f995da48499415bf21720aa35e,226,Garden,Outdoors & Recreation,33.46244,-111.944598,Phoenix,US
4b75f28ff964a5203d312ee3,725570cd0acc4d93ad23408f11cfc934,114,Gym / Fitness Center,Outdoors & Recreation,33.640293,-112.178734,Phoenix,US
4d463bfee198721ea5a1cd8b,12104e23b34f4b659166af7c1fca1b2a,245,Home (private),Residence,33.565159,-112.13706,Phoenix,US
4d4ca1beb6198cfad611bc59,fc331a5b59d640c6bb463fdce01c0a1f,340,Building,Professional & Other Places,33.434214000000004,-112.206654,Phoenix,US
4abc36b4f964a520cc8620e3,d28ecd5a004e4972896b64560c14990a,278,Light Rail,Travel & Transport,33.480637,-112.073851,Phoenix,US
4a418de3f964a5206ba51fe3,2815848c963944e9a7b4eea71f55461f,144,Juice Bar,Drink,33.48393,-112.074709,Phoenix,US
4f2e0dbee4b040eaffeff142,12104e23b34f4b659166af7c1fca1b2a,245,Home (private),Residence,33.453373,-111.993982,Phoenix,US
4ed4007a7ee5be844f55f46c,043264505aa546a7a8cbc7f6fffbad5e,326,Salad Place,Food,33.508724,-112.04144,Phoenix,US
4a7f95b2f964a5205bf41fe3,d69203a6830e4d51adfbdaf71754266c,207,Dessert Shop,Food,33.510127000000004,-112.02791,Phoenix,US
4dd48f1d52b18e28aa18a72f,12104e23b34f4b659166af7c1fca1b2a,245,Home (private),Residence,33.534357,-112.244363,Phoenix,US
4c471b9589a6c9b6bc169988,78ec05ae74f74999bc5765bae12b422a,351,Airport Terminal,Travel & Transport,33.435435,-112.00877,Phoenix,US
4a64ad1ef964a52078c61fe3,1578b1b9884a48ed84704593c292e3cd,54,Mediterranean Restaurant,Food,33.495785999999995,-111.98817,Phoenix,US
4a3020daf964a52024991fe3,d65836ca9e304c19b593a09a5653bad4,359,Hotel,Travel & Transport,33.452396,-112.070086,Phoenix,US
4c59fa4304f9be9ab6b9f060,48984814ad0d47e19df3a135f713e0a2,152,Strip Club,Nightlife Spot,33.467991999999995,-112.112292,Phoenix,US
4b9cb933f964a520347836e3,064daa50ba5d4246b72ea2f93a19a78a,354,Gay Bar,Nightlife Spot,33.466082,-112.044514,Phoenix,US
4acea933f964a5209ad120e3,16cc1f7d21c748beafcc3a4e0a4c770f,14,Bar,Nightlife Spot,33.458821,-112.071512,Phoenix,US
4ab68a4cf964a520b27720e3,da5c52ae1a514f07be40e2039a1d8302,357,Residential Building (Apartment / Condo),Residence,33.459516,-112.07573899999998,Phoenix,US
4e5b66b7483b865169f7900e,12104e23b34f4b659166af7c1fca1b2a,245,Home (private),Residence,33.457801,-111.970135,Phoenix,US
4db9253df7b1b4c54f4af583,12104e23b34f4b659166af7c1fca1b2a,245,Home (private),Residence,33.457801,-111.970135,Phoenix,US
4b4b972cf964a52039a126e3,134ed7259fbb41fd9b5902acbb6be6d1,68,Department Store,Shop & Service,33.522634000000004,-112.09287,Phoenix,US
4d7e61d64219a1cdced261d3,fc331a5b59d640c6bb463fdce01c0a1f,340,Building,Professional & Other Places,33.480253000000005,-112.023223,Phoenix,US
4bd721687b1876b0a0b08d86,53efab68625543b88fe4eb1111a86dd7,66,Fast Food Restaurant,Food,33.552882000000004,-112.100007,Phoenix,US
4e8c7f417ee63153eb9e3ed3,a667b515200e471b9a60cc5554e2f015,19,Travel & Transport,Travel & Transport,33.438412,-112.005535,Phoenix,US
4a621755f964a5200fc31fe3,cae079240fe94f6da2d9525b8274c175,34,Mall,Shop & Service,33.510872,-112.028102,Phoenix,US
4ac79ab7f964a52064b820e3,e6efad379be046779b363be07120fb3b,108,Coffee Shop,Drink,33.459367,-112.074223,Phoenix,US
4dd4b7b1d4c0e6b33e42e012,7fcd5a1bbd064f81ad0cdf8e671db958,318,Nightlife Spot,Nightlife Spot,33.58409,-111.971806,Phoenix,US
4b1fc946f964a520092924e3,5edc8207130a48ffbfe498c723b64a78,29,Bagel Shop,Food,33.508657,-112.045719,Phoenix,US
4a56bc73f964a520b9b51fe3,16cc1f7d21c748beafcc3a4e0a4c770f,14,Bar,Nightlife Spot,33.505251,-112.037078,Phoenix,US
4b5e037df964a520307929e3,4333217313894da9950a075d0f1c0268,101,Resort,Travel & Transport,33.548077,-112.04534,Phoenix,US
4bb680d62ea19521b7cbab2f,cae079240fe94f6da2d9525b8274c175,34,Mall,Shop & Service,33.447628,-112.073722,Phoenix,US
4a395979f964a5205d9f1fe3,820c8443a1754652ab6fcf704557f148,375,New American Restaurant,Food,33.510252,-112.027738,Phoenix,US
4f6d04b6e4b03cbd0fe4dcc8,9e136e5f03164be691fd822254f1c958,204,Neighborhood,Outdoors & Recreation,33.518052000000004,-112.057275,Phoenix,US
4b7e44c0f964a520c4e72fe3,82dd00b83524497bab2d367f1e2b36ab,287,Grocery Store,Shop & Service,33.480647999999995,-111.949999,Phoenix,US
4b332b95f964a520f31725e3,134ed7259fbb41fd9b5902acbb6be6d1,68,Department Store,Shop & Service,33.637884,-112.098022,Phoenix,US
4b528e3af964a520218227e3,d3290a46c9eb4cb99ce99764282e277c,232,Office,Professional & Other Places,33.452024,-112.071131,Phoenix,US
4a8da025f964a5204b1020e3,ae687552505e43c7a99d4f3a77bb130d,288,Multiplex,Arts & Entertainment,33.466497,-112.27988700000002,Phoenix,US
4db84c78cda1051541254c72,bb2ef680499e42f6841df23177d98fad,235,Comedy Club,Arts & Entertainment,33.447938,-112.074065,Phoenix,US
4dc08b0d6e8124d25dcfe54e,af2a3ecb7a1c46e8b136a82d4110ac64,290,Mexican Restaurant,Food,33.458465000000004,-112.190372,Phoenix,US
4e4b3e2d18a808fd10fbaa0b,a7b9d51b18a14d03b3749587ffabffde,91,Scenic Lookout,Outdoors & Recreation,33.55274,-112.065635,Phoenix,US
4e46b294c65bd6ffbe950a9a,79bd60b3a13f4e8fb19bae970aa52709,224,Doctor's Office,Professional & Other Places,33.517472999999995,-112.116729,Phoenix,US
4aabe4a4f964a520bb5a20e3,d28ecd5a004e4972896b64560c14990a,278,Light Rail,Travel & Transport,33.464762,-112.073815,Phoenix,US
4f071ed7e4b0aa2dc4f0ba73,d3290a46c9eb4cb99ce99764282e277c,232,Office,Professional & Other Places,33.377846000000005,-111.972748,Phoenix,US
4d5b34031287a09346901d56,53efab68625543b88fe4eb1111a86dd7,66,Fast Food Restaurant,Food,33.582198,-112.120585,Phoenix,US
4b3b81adf964a520d07425e3,ef84385914bb4543ba1bedea47f20dab,299,Seafood Restaurant,Food,33.598053,-111.97728,Phoenix,US
4b959dacf964a52053ac34e3,1bba130f6dfc4c80acbe8cb0a3e6adf3,201,College Classroom,College & University,33.469027000000004,-112.267133,Phoenix,US
4aa9bf84f964a520285520e3,82dd00b83524497bab2d367f1e2b36ab,287,Grocery Store,Shop & Service,33.638785,-112.120109,Phoenix,US
4b6778f1f964a5200c512be3,ae77bb68eff04837bc267b21bc7862c4,199,Bakery,Food,33.639834,-112.068174,Phoenix,US
4b5f93f1f964a520a9c229e3,82dd00b83524497bab2d367f1e2b36ab,287,Grocery Store,Shop & Service,33.609566,-112.183968,Phoenix,US
472f0ea0f964a520134c1fe3,51c5a79f4a3c43628c3e944286e49400,135,Movie Theater,Arts & Entertainment,33.521109,-112.094372,Phoenix,US
4ab2eb9df964a520fe6c20e3,82dd00b83524497bab2d367f1e2b36ab,287,Grocery Store,Shop & Service,33.478448,-112.290406,Phoenix,US
4a3eb5ccf964a52055a31fe3,918247ac647246ba907fbe5f0e01c225,86,Art Gallery,Arts & Entertainment,33.467583000000005,-112.073128,Phoenix,US
4ae5e789f964a52007a321e3,910b05ae48e14b0bb47b6550159156e3,155,Asian Restaurant,Food,33.465472,-112.082981,Phoenix,US
4aff0f06f964a5209e3322e3,f12245572898439886377df1f8db3fde,156,American Restaurant,Food,33.37898,-111.964869,Phoenix,US
4a418b08f964a52068a51fe3,89e6ea5602544ff5b70aa71f7d2680fe,82,Thai Restaurant,Food,33.483429,-112.075009,Phoenix,US
4b4f5799f964a520250227e3,82dd00b83524497bab2d367f1e2b36ab,287,Grocery Store,Shop & Service,33.507533,-112.236396,Phoenix,US
4b649902f964a520c7c02ae3,134ed7259fbb41fd9b5902acbb6be6d1,68,Department Store,Shop & Service,33.580897,-112.152823,Phoenix,US
4e83d8dfb8f7b1a5009f96e5,d69203a6830e4d51adfbdaf71754266c,207,Dessert Shop,Food,33.470033,-112.065339,Phoenix,US
4e98e0220aaf0a73a19bc2ae,2ec2fa5971264f20b484a512856e2c45,102,Brewery,Nightlife Spot,33.494911,-111.97578500000002,Phoenix,US
4a9bd3e9f964a5204b3520e3,53efab68625543b88fe4eb1111a86dd7,66,Fast Food Restaurant,Food,33.494162,-112.083066,Phoenix,US
4a47e547f964a52043aa1fe3,f61eeed0b51040d49e94b6dac8ca42a9,111,Breakfast Spot,Food,33.576243,-112.065461,Phoenix,US
4c9b9584a004a1cd5551526e,8972bfc122c3429eb7222730baaac161,268,Sushi Restaurant,Food,33.670054,-112.187372,Phoenix,US
4a9c3627f964a520713620e3,7ab55411dbce49ccbf61c9545a64890a,92,Sandwich Place,Food,33.510502,-112.04632,Phoenix,US
4afcaba0f964a520f32422e3,82dd00b83524497bab2d367f1e2b36ab,287,Grocery Store,Shop & Service,33.494488,-112.083067,Phoenix,US
4ad0cde5f964a520f6d920e3,f61eeed0b51040d49e94b6dac8ca42a9,111,Breakfast Spot,Food,33.421601,-111.953119,Phoenix,US
4a36a589f964a520ca9d1fe3,c8f5a88cbd0d4c2a9768889ee697d478,148,Convenience Store,Shop & Service,33.46091,-112.168343,Phoenix,US
4aa54800f964a520d64720e3,82dd00b83524497bab2d367f1e2b36ab,287,Grocery Store,Shop & Service,33.554575,-112.101021,Phoenix,US
4bd0f58bb221c9b693dbd4d0,82dd00b83524497bab2d367f1e2b36ab,287,Grocery Store,Shop & Service,33.554283,-112.098762,Phoenix,US
4b64b987f964a52054cb2ae3,ea13a31b9c984f549d7bb4e63cf51815,310,Hardware Store,Shop & Service,33.639078000000005,-111.976128,Phoenix,US
4d69868882cba093f6f1dbd8,80784f6179af4eaa98b392cdb8de0f8a,379,Lake,Outdoors & Recreation,33.431684000000004,-111.947006,Phoenix,US
4b54d994f964a520a5cf27e3,82dd00b83524497bab2d367f1e2b36ab,287,Grocery Store,Shop & Service,33.611108,-111.994168,Phoenix,US
4bf786595efe2d7f34386934,f12245572898439886377df1f8db3fde,156,American Restaurant,Food,33.534067,-112.261393,Phoenix,US
4e823cc1d3e3312da3a21440,d3290a46c9eb4cb99ce99764282e277c,232,Office,Professional & Other Places,33.424514,-111.968793,Phoenix,US
4abfdcbaf964a520a99220e3,c8f5a88cbd0d4c2a9768889ee697d478,148,Convenience Store,Shop & Service,33.506153000000005,-112.047058,Phoenix,US
4a52c836f964a52001b21fe3,6e03750d63eb4afa9c0a00b350ceca31,370,Pub,Nightlife Spot,33.53313,-112.261636,Phoenix,US
4b650686f964a5201ee02ae3,c8f5a88cbd0d4c2a9768889ee697d478,148,Convenience Store,Shop & Service,33.494775,-112.256107,Phoenix,US
4a384af6f964a520de9e1fe3,16cc1f7d21c748beafcc3a4e0a4c770f,14,Bar,Nightlife Spot,33.639156,-112.185125,Phoenix,US
4ac15aebf964a520e19620e3,11be013aa52f4b48b5fbfa8b56f968c5,234,Caribbean Restaurant,Food,33.506266,-112.073983,Phoenix,US
4ccd15b554f0b1f745c61aca,6e03750d63eb4afa9c0a00b350ceca31,370,Pub,Nightlife Spot,33.509484,-112.061484,Phoenix,US
4dae52995da3cca6f0a76231,2880581db1174a3e92cd69b7109f496e,215,Clothing Store,Shop & Service,33.521805,-112.064305,Phoenix,US
4dc5e2f6b0fb5556ccfd730c,af2a3ecb7a1c46e8b136a82d4110ac64,290,Mexican Restaurant,Food,33.510281,-112.028433,Phoenix,US
4ee2674d9a521fcbefa20ab8,65c2be14fae44efba124a3d1f6edd735,136,Italian Restaurant,Food,33.447364,-112.072621,Phoenix,US
4f1efb7de4b03ae365ce5a26,6eb1282a9ae54aa8879817b684e6c8ac,314,Bookstore,Shop & Service,33.457903,-112.067236,Phoenix,US
4b1c4ceef964a520b80524e3,4331c0b145b54e08954ad86768e5526d,236,Burger Joint,Food,33.507921,-112.266481,Phoenix,US
4d1e44dfbdd7a093ffd1dbce,12104e23b34f4b659166af7c1fca1b2a,245,Home (private),Residence,33.635154,-112.160906,Phoenix,US
4e3a4cdf1850f0453401b5fd,186b77490e434231b2882cf2ff2d2495,286,Music Venue,Arts & Entertainment,33.451797,-112.076654,Phoenix,US
4aa5c464f964a520694920e3,f12245572898439886377df1f8db3fde,156,American Restaurant,Food,33.451719,-112.070256,Phoenix,US
4b82e511f964a52093eb30e3,16cc1f7d21c748beafcc3a4e0a4c770f,14,Bar,Nightlife Spot,33.524349,-112.047104,Phoenix,US
4d21f7b19822a0907a8ffeaf,12104e23b34f4b659166af7c1fca1b2a,245,Home (private),Residence,33.646848,-112.041675,Phoenix,US
4c98f37c7b9d3704faa1e285,d3290a46c9eb4cb99ce99764282e277c,232,Office,Professional & Other Places,33.441008000000004,-112.066299,Phoenix,US
4aec5a3ff964a52043c621e3,e6efad379be046779b363be07120fb3b,108,Coffee Shop,Drink,33.583309,-111.976478,Phoenix,US
4d8aa0a999c2a1cd6e7795d7,820320f0543841c1bd3e7508852147f2,193,Gas Station / Garage,Shop & Service,33.473608,-111.985628,Phoenix,US
4dd26e3e227159fef24a43e2,e3195b7695264edca1e7e569d43896f0,251,Bus Line,Travel & Transport,33.435288,-111.98531,Phoenix,US
4b2c0835f964a52008c024e3,e6efad379be046779b363be07120fb3b,108,Coffee Shop,Drink,33.458808000000005,-112.077402,Phoenix,US
4b0a01ecf964a520042123e3,8315edbf3c7647c4b0ac542744059cfc,175,Capitol Building,Professional & Other Places,33.448143,-112.096375,Phoenix,US
4c840666d34ca143fb013b80,2ad3140025724a31821742d37e10ff4c,67,Cosmetics Shop,Shop & Service,33.507698,-112.045999,Phoenix,US
4b3aa36ff964a520ac6b25e3,9df4601a8c6641d5acbe50c2bef98b74,159,Drugstore / Pharmacy,Shop & Service,33.509661,-112.046685,Phoenix,US
4ed67e1a61afeefb7cdc16ef,f61eeed0b51040d49e94b6dac8ca42a9,111,Breakfast Spot,Food,33.447736,-112.073233,Phoenix,US
413ba880f964a520f11a1fe3,82850b4350904bf7ae2306ab043e7754,282,Sports Bar,Nightlife Spot,33.444806,-112.072225,Phoenix,US
4ada4a34f964a520fb2021e3,9732d1d738ab4ae5b231dbccc73f386f,177,Hospital,Professional & Other Places,33.478014,-112.25864,Phoenix,US
4e6fb21fb0fbacf2ade037ab,12104e23b34f4b659166af7c1fca1b2a,245,Home (private),Residence,33.648027,-112.148983,Phoenix,US
4d39dbf934ee3704e14d719b,11d3fb58f312476cbb129264dfd7fd74,383,Food Truck,Food,33.455789,-112.073483,Phoenix,US
4baabc37f964a5207a833ae3,53efab68625543b88fe4eb1111a86dd7,66,Fast Food Restaurant,Food,33.552176,-112.260829,Phoenix,US
4aff5de3f964a520d53722e3,4331c0b145b54e08954ad86768e5526d,236,Burger Joint,Food,33.538321999999994,-112.114387,Phoenix,US
4f283eace4b0600378b7ca9d,4331c0b145b54e08954ad86768e5526d,236,Burger Joint,Food,33.46556,-112.082006,Phoenix,US
4a6b279df964a52010ce1fe3,e6efad379be046779b363be07120fb3b,108,Coffee Shop,Drink,33.508712,-112.045815,Phoenix,US
4dea810152b11677f03da4b3,b7feb7cd921e4090858f2105033cbc61,250,Gym,Outdoors & Recreation,33.522675,-112.04856,Phoenix,US
4b405169f964a5209fb725e3,af2a3ecb7a1c46e8b136a82d4110ac64,290,Mexican Restaurant,Food,33.524128999999995,-112.047791,Phoenix,US
4ba52898f964a5207ae538e3,82dd00b83524497bab2d367f1e2b36ab,287,Grocery Store,Shop & Service,33.63874000000001,-112.092326,Phoenix,US
4a3d9447f964a52077a21fe3,ebb3b187f7f4428cb11a4ee8769d806c,104,Electronics Store,Shop & Service,33.510539,-112.028619,Phoenix,US
4b6f232af964a5208fdf2ce3,82dd00b83524497bab2d367f1e2b36ab,287,Grocery Store,Shop & Service,33.564324,-112.288747,Phoenix,US
4b492b95f964a520b46826e3,65c2be14fae44efba124a3d1f6edd735,136,Italian Restaurant,Food,33.464362,-112.074328,Phoenix,US
4b8d3b4bf964a520cbee32e3,65c2be14fae44efba124a3d1f6edd735,136,Italian Restaurant,Food,33.640163,-112.186017,Phoenix,US
4a492ee6f964a52012ab1fe3,82dd00b83524497bab2d367f1e2b36ab,287,Grocery Store,Shop & Service,33.507195,-112.037929,Phoenix,US
4b8ac235f964a520167f32e3,f12245572898439886377df1f8db3fde,156,American Restaurant,Food,33.552174,-112.260031,Phoenix,US
4aa59b61f964a520ef4820e3,e6efad379be046779b363be07120fb3b,108,Coffee Shop,Drink,33.451891,-112.069228,Phoenix,US
4b08a1b2f964a520e00f23e3,89eaa9e76df9447393adede8fc8b44cd,164,Wine Shop,Shop & Service,33.510046,-112.045634,Phoenix,US
4b3ebf65f964a520aca125e3,4333217313894da9950a075d0f1c0268,101,Resort,Travel & Transport,33.507479,-111.949675,Phoenix,US
41463480f964a520b71c1fe3,82850b4350904bf7ae2306ab043e7754,282,Sports Bar,Nightlife Spot,33.63684600000001,-112.070289,Phoenix,US
4d02f4c8a26854813a18afbd,f12245572898439886377df1f8db3fde,156,American Restaurant,Food,33.510001,-112.024133,Phoenix,US
4a44539df964a52075a71fe3,9f035cf56348426095efab7b9de4957d,42,Lounge,Nightlife Spot,33.449018,-112.073041,Phoenix,US
4dafa9eb93a037b7b074b6b4,daca399a7f4b437287496d39540e8c21,22,Gastropub,Food,33.513624,-112.073389,Phoenix,US
4a52a9d7f964a520deb11fe3,ae687552505e43c7a99d4f3a77bb130d,288,Multiplex,Arts & Entertainment,33.535332000000004,-112.261348,Phoenix,US
4edacdbcb6344371f76bc359,f359c3fa78534f839ff7b9677c01517b,305,Airport Tram,Travel & Transport,33.436052000000004,-111.998002,Phoenix,US
4b2adfe6f964a52053b124e3,16cc1f7d21c748beafcc3a4e0a4c770f,14,Bar,Nightlife Spot,33.407603,-111.947594,Phoenix,US
4aedc960f964a520eace21e3,51c5a79f4a3c43628c3e944286e49400,135,Movie Theater,Arts & Entertainment,33.554682,-112.270339,Phoenix,US
413ba880f964a520db1b1fe3,064daa50ba5d4246b72ea2f93a19a78a,354,Gay Bar,Nightlife Spot,33.451369,-111.973998,Phoenix,US
4a50168af964a520f5af1fe3,d28ecd5a004e4972896b64560c14990a,278,Light Rail,Travel & Transport,33.508651,-112.075296,Phoenix,US
47e9a02ef964a5205f4e1fe3,064daa50ba5d4246b72ea2f93a19a78a,354,Gay Bar,Nightlife Spot,33.466021999999995,-112.015334,Phoenix,US
4ed31509b634dd2994b4e86f,fc331a5b59d640c6bb463fdce01c0a1f,340,Building,Professional & Other Places,33.488331,-112.058748,Phoenix,US
4b5be373f964a520c41b29e3,064daa50ba5d4246b72ea2f93a19a78a,354,Gay Bar,Nightlife Spot,33.496097,-112.083247,Phoenix,US
4b1163bef964a5207c7b23e3,82dd00b83524497bab2d367f1e2b36ab,287,Grocery Store,Shop & Service,33.456025,-112.073518,Phoenix,US
4a3fdf4cf964a52004a41fe3,bfe53afadf5946498ef9af628547515c,248,Pizza Place,Food,33.454991,-112.079923,Phoenix,US
4d2acecf8e102c0fbe19d16e,12104e23b34f4b659166af7c1fca1b2a,245,Home (private),Residence,33.467586,-112.089368,Phoenix,US
4b016de3f964a5207e4222e3,134ed7259fbb41fd9b5902acbb6be6d1,68,Department Store,Shop & Service,33.670943,-112.028167,Phoenix,US
4b37a049f964a5203e4325e3,82dd00b83524497bab2d367f1e2b36ab,287,Grocery Store,Shop & Service,33.537525,-112.098209,Phoenix,US
4a4d18f4f964a5208aad1fe3,7ab55411dbce49ccbf61c9545a64890a,92,Sandwich Place,Food,33.500596,-112.074195,Phoenix,US
4a72057af964a52025da1fe3,82dd00b83524497bab2d367f1e2b36ab,287,Grocery Store,Shop & Service,33.473943,-111.984973,Phoenix,US
4a6e737df964a520c9d41fe3,390865ce4285438cb0a32d39b4a2f3ae,350,Sporting Goods Shop,Shop & Service,33.39195,-111.96163500000002,Phoenix,US
4bfc2f22d6f2c9b607d54ec8,f12245572898439886377df1f8db3fde,156,American Restaurant,Food,33.552115,-112.262179,Phoenix,US
4afb07d9f964a5207a1a22e3,7ab55411dbce49ccbf61c9545a64890a,92,Sandwich Place,Food,33.507425,-112.039819,Phoenix,US
4b6f3476f964a52021e42ce3,092e201bb63a4b6eab7c08ad32a2d169,16,Automotive Shop,Shop & Service,33.467091,-111.987778,Phoenix,US
4c773395923ba143c29b66e6,f12245572898439886377df1f8db3fde,156,American Restaurant,Food,33.457887,-112.068443,Phoenix,US
4b82a37ef964a520f0db30e3,820320f0543841c1bd3e7508852147f2,193,Gas Station / Garage,Shop & Service,33.596844,-112.150755,Phoenix,US
4d84196f61676dcb88626be4,576c4c7484bd4ec5b96b52a17db81bac,352,General Travel,Travel & Transport,33.436297,-112.000983,Phoenix,US
4f01334d722e0f0773455193,768c2408948841b1abc7469a292a612d,9,Planetarium,Arts & Entertainment,33.463546,-112.003771,Phoenix,US
4dba1044f7b144688ff1319c,a41b788b852f4daeb030f073a6c25c07,264,Bus Station,Travel & Transport,33.436135,-111.99933500000002,Phoenix,US
4bd26fc0046076b0e3207471,53efab68625543b88fe4eb1111a86dd7,66,Fast Food Restaurant,Food,33.568378,-112.185881,Phoenix,US
4ab418e3f964a520d26f20e3,b2ae5c5ff8e64c80a157204867015f0e,78,Deli / Bodega,Food,33.602717,-111.98131399999998,Phoenix,US
4ac7ab7df964a520f4b820e3,e9eda9dceecd4487a2e88f31d0619ae0,220,Medical Center,Professional & Other Places,33.481961,-112.079644,Phoenix,US
4d79c272f29ab60c2311f20a,12104e23b34f4b659166af7c1fca1b2a,245,Home (private),Residence,33.501775,-112.077445,Phoenix,US
4b4a4bd1f964a520bf8226e3,be441e8789374790938f04b5e33fabfa,142,Video Game Store,Shop & Service,33.379208,-112.03321,Phoenix,US
4b573166f964a5205e2a28e3,725570cd0acc4d93ad23408f11cfc934,114,Gym / Fitness Center,Outdoors & Recreation,33.481308,-112.223121,Phoenix,US
4afaf3b8f964a520cd1922e3,2815848c963944e9a7b4eea71f55461f,144,Juice Bar,Drink,33.507477,-112.04708,Phoenix,US
4afc304cf964a520692022e3,c8f5a88cbd0d4c2a9768889ee697d478,148,Convenience Store,Shop & Service,33.494752000000005,-112.017954,Phoenix,US
4b103071f964a520dc6a23e3,6eb1282a9ae54aa8879817b684e6c8ac,314,Bookstore,Shop & Service,33.580612,-112.121437,Phoenix,US
4c3342e6ed37a59326056d03,29d6e9a35fd04c47a217efed60a14877,49,Church,Professional & Other Places,33.454295,-112.259874,Phoenix,US
4bcf42e10ffdce727c52b2c0,4333217313894da9950a075d0f1c0268,101,Resort,Travel & Transport,33.587866,-111.959664,Phoenix,US
4b4fa97cf964a520b10f27e3,4331c0b145b54e08954ad86768e5526d,236,Burger Joint,Food,33.598987,-111.9797,Phoenix,US
4ad88a33f964a520241221e3,c8f5a88cbd0d4c2a9768889ee697d478,148,Convenience Store,Shop & Service,33.494285999999995,-112.079206,Phoenix,US
4b3174c1f964a5203d0725e3,af2a3ecb7a1c46e8b136a82d4110ac64,290,Mexican Restaurant,Food,33.63983,-112.087729,Phoenix,US
4b99a32af964a520028935e3,ae687552505e43c7a99d4f3a77bb130d,288,Multiplex,Arts & Entertainment,33.575011,-112.122656,Phoenix,US
4ee7a132f790ed4b5a0b8c38,af2a3ecb7a1c46e8b136a82d4110ac64,290,Mexican Restaurant,Food,33.465601,-112.08238500000002,Phoenix,US
4b189c1df964a5209ed423e3,f12245572898439886377df1f8db3fde,156,American Restaurant,Food,33.640972999999995,-112.118026,Phoenix,US
4cd8bc621891236ad4fe370b,fc331a5b59d640c6bb463fdce01c0a1f,340,Building,Professional & Other Places,33.451012,-112.073153,Phoenix,US
4bbfe5fdf8219c7410e6b010,378c0bf7698c4c76aa4003d83c7934e3,47,Chinese Restaurant,Food,33.555335,-112.099255,Phoenix,US
4df32c1dae609e69dd98bd0a,d3a8eae06e124c0892f7d4ffccb701e7,37,Bridge,Outdoors & Recreation,33.668211,-112.195108,Phoenix,US
413ba880f964a520111c1fe3,bfe53afadf5946498ef9af628547515c,248,Pizza Place,Food,33.641348,-112.117624,Phoenix,US
4a847c90f964a520bcfc1fe3,ebb3b187f7f4428cb11a4ee8769d806c,104,Electronics Store,Shop & Service,33.37896,-111.972065,Phoenix,US
44e09b30f964a520fd361fe3,4331c0b145b54e08954ad86768e5526d,236,Burger Joint,Food,33.5112,-112.01408,Phoenix,US
4bf17980ef99c9b685595b42,23c7880a7c924528b1c9a275a82386b9,203,Theater,Arts & Entertainment,33.50646,-112.073646,Phoenix,US
4b8421fcf964a520d12231e3,820c8443a1754652ab6fcf704557f148,375,New American Restaurant,Food,33.508955,-112.071265,Phoenix,US
4a6faf31f964a520d1d61fe3,186b77490e434231b2882cf2ff2d2495,286,Music Venue,Arts & Entertainment,33.448631,-112.079365,Phoenix,US
4b885a4ef964a52077f131e3,c8f5a88cbd0d4c2a9768889ee697d478,148,Convenience Store,Shop & Service,33.436741999999995,-112.20431299999998,Phoenix,US
4a3e8accf964a52009a31fe3,d8a4c0db54bf4c6da5102833c19f8a36,39,Diner,Food,33.480043,-112.080604,Phoenix,US
4b929d02f964a520db0934e3,ea13a31b9c984f549d7bb4e63cf51815,310,Hardware Store,Shop & Service,33.583043,-112.187758,Phoenix,US
4bdaf71ba8d976b010940cb5,aea8318d474a4eed973f5885b79d12b4,335,Arts & Crafts Store,Shop & Service,33.567192,-111.942349,Phoenix,US
4b5679e5f964a520231228e3,af2a3ecb7a1c46e8b136a82d4110ac64,290,Mexican Restaurant,Food,33.508873,-112.046732,Phoenix,US
4ae8a07df964a52000b121e3,f12245572898439886377df1f8db3fde,156,American Restaurant,Food,33.449411,-111.986846,Phoenix,US
4b730d63f964a52047982de3,8cf164ecb8df4183a8f156da8017a5a5,197,Hiking Trail,Outdoors & Recreation,33.511343,-111.953087,Phoenix,US
4b7b5328f964a520645e2fe3,82dd00b83524497bab2d367f1e2b36ab,287,Grocery Store,Shop & Service,33.466317,-112.239493,Phoenix,US
4ae1e7c4f964a520948821e3,390865ce4285438cb0a32d39b4a2f3ae,350,Sporting Goods Shop,Shop & Service,33.602083,-111.989168,Phoenix,US
4b8aab62f964a520bb7832e3,725570cd0acc4d93ad23408f11cfc934,114,Gym / Fitness Center,Outdoors & Recreation,33.554682,-112.255322,Phoenix,US
4bae4ec0f964a520a5a03be3,c8f5a88cbd0d4c2a9768889ee697d478,148,Convenience Store,Shop & Service,33.451164,-111.986818,Phoenix,US
4db62bf593a017099dfbc1eb,0935da85d4ae4f6cbebd37d1df042005,185,Bank,Shop & Service,33.43655,-111.997583,Phoenix,US
4b070933f964a520ebf522e3,d3290a46c9eb4cb99ce99764282e277c,232,Office,Professional & Other Places,33.445332,-112.074555,Phoenix,US
4a501cd2f964a520f9af1fe3,e83d090079ac4ed5a09a54ff4ae63724,372,Park,Outdoors & Recreation,33.498401,-112.069373,Phoenix,US
4bd09417b221c9b6d9f8d3d0,c61ad108db1a42e4bb5266a95b08dc14,51,Parking,Professional & Other Places,33.449545,-111.987784,Phoenix,US
4bcca312b6c49c74da199491,d3290a46c9eb4cb99ce99764282e277c,232,Office,Professional & Other Places,33.477219,-112.073885,Phoenix,US
4d46d94fbefe236af5b50ce3,d3290a46c9eb4cb99ce99764282e277c,232,Office,Professional & Other Places,33.446595,-111.977357,Phoenix,US
4b3ab767f964a5203b6d25e3,ea13a31b9c984f549d7bb4e63cf51815,310,Hardware Store,Shop & Service,33.47914,-112.003131,Phoenix,US
4b2937a0f964a520249b24e3,7ab55411dbce49ccbf61c9545a64890a,92,Sandwich Place,Food,33.421457000000004,-111.960118,Phoenix,US
4b477cfdf964a520c33326e3,4331c0b145b54e08954ad86768e5526d,236,Burger Joint,Food,33.567176,-112.116466,Phoenix,US
4c00e365147bd13a15a42a4d,9df4601a8c6641d5acbe50c2bef98b74,159,Drugstore / Pharmacy,Shop & Service,33.55375,-112.100223,Phoenix,US
4f67e3aee4b0173dd48ba772,9a05945e7e7b4b53b34196d9b90167ec,217,Coworking Space,Professional & Other Places,33.508152,-112.113304,Phoenix,US
4b24519af964a520d36524e3,f12245572898439886377df1f8db3fde,156,American Restaurant,Food,33.510055,-112.029798,Phoenix,US
4ae4eff0f964a5208e9f21e3,134ed7259fbb41fd9b5902acbb6be6d1,68,Department Store,Shop & Service,33.479456,-112.00068,Phoenix,US
4be6158dcf200f47b335143c,9732d1d738ab4ae5b231dbccc73f386f,177,Hospital,Professional & Other Places,33.569509000000004,-112.071125,Phoenix,US
4aeb02bbf964a5202fbd21e3,82dd00b83524497bab2d367f1e2b36ab,287,Grocery Store,Shop & Service,33.46622,-112.067553,Phoenix,US
4a826b71f964a5202bf91fe3,b8e73a846beb4e4e85195e50569576ac,131,Community College,College & University,33.571064,-112.189964,Phoenix,US
4b055fd4f964a520fa5722e3,e6efad379be046779b363be07120fb3b,108,Coffee Shop,Drink,33.466275,-112.065892,Phoenix,US
4a71411af964a52032d91fe3,14c35ac8254c4703895943dbbf38325d,198,Library,Professional & Other Places,33.500715,-112.169616,Phoenix,US
4ef91820775b54cdb5e54762,1ed99bd80f6b4a30a05897998e2f64c1,358,Food & Drink Shop,Shop & Service,33.447857,-112.073972,Phoenix,US
4651c0a2f964a520dd461fe3,e6efad379be046779b363be07120fb3b,108,Coffee Shop,Drink,33.666746999999994,-112.124298,Phoenix,US
4f68b868e4b0c2cd00b64982,fc331a5b59d640c6bb463fdce01c0a1f,340,Building,Professional & Other Places,33.454440000000005,-112.159091,Phoenix,US
4ab2ee42f964a520066d20e3,bfe53afadf5946498ef9af628547515c,248,Pizza Place,Food,33.509485999999995,-112.040326,Phoenix,US
4b958bc7f964a5209fa834e3,57a6934e11db4d998674871654476fb8,257,Ice Cream Shop,Food,33.510407,-112.074086,Phoenix,US
4b1acca9f964a52018f223e3,134ed7259fbb41fd9b5902acbb6be6d1,68,Department Store,Shop & Service,33.666497,-112.119244,Phoenix,US
4e45b4627d8b91a065855eb5,4add2bb4905a4b37b9a5d00270c79242,263,Steakhouse,Food,33.578694,-112.118306,Phoenix,US
4df41520ae609e69dd9c2638,dbd823ee65ec431899cb2a441ae6142f,238,Road,Travel & Transport,33.46190900000001,-112.109643,Phoenix,US
4bc6120fbf29c9b6f832f92a,82dd00b83524497bab2d367f1e2b36ab,287,Grocery Store,Shop & Service,33.509402,-111.996174,Phoenix,US
4bf3ea763f86c9b6e29ab21c,820320f0543841c1bd3e7508852147f2,193,Gas Station / Garage,Shop & Service,33.520136,-112.095205,Phoenix,US
4a821194f964a52073f81fe3,cae079240fe94f6da2d9525b8274c175,34,Mall,Shop & Service,33.476914,-112.224891,Phoenix,US
4b2ad184f964a5203bb024e3,064daa50ba5d4246b72ea2f93a19a78a,354,Gay Bar,Nightlife Spot,33.483868,-112.075948,Phoenix,US
4ad2b28ef964a52082e220e3,c8f5a88cbd0d4c2a9768889ee697d478,148,Convenience Store,Shop & Service,33.421426000000004,-111.970169,Phoenix,US
4af6411cf964a520a80222e3,e6efad379be046779b363be07120fb3b,108,Coffee Shop,Drink,33.64193,-112.065042,Phoenix,US
4b73899cf964a5201eb32de3,d65836ca9e304c19b593a09a5653bad4,359,Hotel,Travel & Transport,33.404106,-111.979825,Phoenix,US
4c615a7312e5c928bf56214c,2320de06382146e390a8ac799d35abc8,302,Trade School,College & University,33.684667,-112.12319,Phoenix,US
4b4d2a7af964a5201fcd26e3,7cb5ac3501374809a4f378e7b01475ae,295,Pool,Outdoors & Recreation,33.613114,-112.01388500000002,Phoenix,US
4a662b37f964a52029c81fe3,e6efad379be046779b363be07120fb3b,108,Coffee Shop,Drink,33.465545,-112.078035,Phoenix,US
4c79249d81bca0939f3afc14,5d44479b3ee240b08c88da3e716d2692,259,Donut Shop,Food,33.480282,-112.110034,Phoenix,US
4b6ca052f964a5208b472ce3,8b38f055d26e4ddc9e2759433cd8860c,180,Paper / Office Supplies Store,Shop & Service,33.58132,-112.12497,Phoenix,US
4aef6feaf964a52071d821e3,e6efad379be046779b363be07120fb3b,108,Coffee Shop,Drink,33.465203,-112.276331,Phoenix,US
4ab3a4a6f964a520ea6d20e3,e6efad379be046779b363be07120fb3b,108,Coffee Shop,Drink,33.508499,-112.028934,Phoenix,US
4b2d958cf964a52039d924e3,e6efad379be046779b363be07120fb3b,108,Coffee Shop,Drink,33.606821999999994,-112.065515,Phoenix,US
4be5fba7477d9c7479b7e62d,9df4601a8c6641d5acbe50c2bef98b74,159,Drugstore / Pharmacy,Shop & Service,33.507734,-112.290594,Phoenix,US
4a81b99ef964a52062f71fe3,910b05ae48e14b0bb47b6550159156e3,155,Asian Restaurant,Food,33.626714,-112.100206,Phoenix,US
4f07605ee4b0ef60ec6d4b68,8972bfc122c3429eb7222730baaac161,268,Sushi Restaurant,Food,33.465340000000005,-112.082388,Phoenix,US
4dd3fb1b091afbe9b9cce360,bfe53afadf5946498ef9af628547515c,248,Pizza Place,Food,33.599661,-111.982307,Phoenix,US
4e4caa486284776ee125cf0e,12104e23b34f4b659166af7c1fca1b2a,245,Home (private),Residence,33.661436,-112.077445,Phoenix,US
413ba880f964a520f51b1fe3,0528a5c7d0c84edc8f9a6f6dce00046e,188,Wine Bar,Nightlife Spot,33.502283,-111.996026,Phoenix,US
413ba880f964a520741b1fe3,6e03750d63eb4afa9c0a00b350ceca31,370,Pub,Nightlife Spot,33.497727000000005,-112.0741,Phoenix,US
4a81bc28f964a52069f71fe3,16cc1f7d21c748beafcc3a4e0a4c770f,14,Bar,Nightlife Spot,33.4484,-112.071796,Phoenix,US
4d8eb547c1b1721ebb7e3746,0fcd0a6c336f4d719943e5678a11f30a,308,Taco Place,Food,33.509012,-112.083375,Phoenix,US
4bbf85ecf8219c74b91fb010,5d44479b3ee240b08c88da3e716d2692,259,Donut Shop,Food,33.552858,-112.101044,Phoenix,US
4b341d3cf964a520282525e3,29d6e9a35fd04c47a217efed60a14877,49,Church,Professional & Other Places,33.529703000000005,-112.074653,Phoenix,US
4b966f12f964a52000cc34e3,53efab68625543b88fe4eb1111a86dd7,66,Fast Food Restaurant,Food,33.465235,-112.169627,Phoenix,US
4c6bd4c47c052d7f83502acf,78ec05ae74f74999bc5765bae12b422a,351,Airport Terminal,Travel & Transport,33.435542,-112.013791,Phoenix,US
4bb79e9698c7ef3b48133002,82850b4350904bf7ae2306ab043e7754,282,Sports Bar,Nightlife Spot,33.445596,-112.068104,Phoenix,US
4b47961df964a5207e3626e3,d3290a46c9eb4cb99ce99764282e277c,232,Office,Professional & Other Places,33.456614,-112.081034,Phoenix,US
4e27790db61c9d28cbeb5500,9a05945e7e7b4b53b34196d9b90167ec,217,Coworking Space,Professional & Other Places,33.394533,-111.959774,Phoenix,US
4ae79068f964a5206dac21e3,82dd00b83524497bab2d367f1e2b36ab,287,Grocery Store,Shop & Service,33.459686,-112.046388,Phoenix,US
4a593b53f964a5200eb91fe3,51c5a79f4a3c43628c3e944286e49400,135,Movie Theater,Arts & Entertainment,33.641509,-112.00863,Phoenix,US
4dbcd5a493a08f9274c92550,a491733f9d20449ebc7b35e88010a56a,139,Beer Garden,Nightlife Spot,33.447962,-112.073995,Phoenix,US
4b60e79ef964a520b4002ae3,b8e73a846beb4e4e85195e50569576ac,131,Community College,College & University,33.652235,-112.009541,Phoenix,US
4c48c1fc6f1420a12730b354,78ec05ae74f74999bc5765bae12b422a,351,Airport Terminal,Travel & Transport,33.43572,-111.996878,Phoenix,US
4dace94f43a17e90f8eb1650,53efab68625543b88fe4eb1111a86dd7,66,Fast Food Restaurant,Food,33.509462,-112.271961,Phoenix,US
4d4464d4bf61a1cd2b5408ac,f12245572898439886377df1f8db3fde,156,American Restaurant,Food,33.447369,-112.072896,Phoenix,US
4f90eb6fe4b0ff5a511aa025,fc331a5b59d640c6bb463fdce01c0a1f,340,Building,Professional & Other Places,33.449853000000004,-112.030698,Phoenix,US
4eaf8df30aafcac7e5220b78,12104e23b34f4b659166af7c1fca1b2a,245,Home (private),Residence,33.484915,-112.053599,Phoenix,US
4bc47e11abf495215112c593,820320f0543841c1bd3e7508852147f2,193,Gas Station / Garage,Shop & Service,33.486963,-112.068872,Phoenix,US
4e834c68d22dd6a659cc904e,d3290a46c9eb4cb99ce99764282e277c,232,Office,Professional & Other Places,33.487334000000004,-112.070758,Phoenix,US
4ae4899af964a5206a9b21e3,9df4601a8c6641d5acbe50c2bef98b74,159,Drugstore / Pharmacy,Shop & Service,33.487849,-112.074505,Phoenix,US
4e5c0a7088775cde7b3f98df,79bd60b3a13f4e8fb19bae970aa52709,224,Doctor's Office,Professional & Other Places,33.553224,-112.26923700000002,Phoenix,US
4b7dd115f964a52093d62fe3,c8f5a88cbd0d4c2a9768889ee697d478,148,Convenience Store,Shop & Service,33.508834,-112.114207,Phoenix,US
4abe42a0f964a520468c20e3,ebb3b187f7f4428cb11a4ee8769d806c,104,Electronics Store,Shop & Service,33.463561,-112.275596,Phoenix,US
4b3b95f7f964a520687625e3,74ffe8db85fc46df8add6a57773721f2,73,Record Shop,Shop & Service,33.509838,-112.099466,Phoenix,US
4b1404c6f964a520d99b23e3,1578b1b9884a48ed84704593c292e3cd,54,Mediterranean Restaurant,Food,33.508755,-112.045815,Phoenix,US
4abcdca5f964a5207c8720e3,fc331a5b59d640c6bb463fdce01c0a1f,340,Building,Professional & Other Places,33.493958,-112.067452,Phoenix,US
4c4b65fc9e6dbe9a65d5f80b,fc331a5b59d640c6bb463fdce01c0a1f,340,Building,Professional & Other Places,33.660369,-112.066724,Phoenix,US
4f8cf088e4b0e5ed77af2653,48984814ad0d47e19df3a135f713e0a2,152,Strip Club,Nightlife Spot,33.493879,-112.067601,Phoenix,US
4ae4fdd1f964a520ee9f21e3,134ed7259fbb41fd9b5902acbb6be6d1,68,Department Store,Shop & Service,33.379107,-112.034744,Phoenix,US
4ab3c142f964a520526e20e3,7ab55411dbce49ccbf61c9545a64890a,92,Sandwich Place,Food,33.42269,-111.951604,Phoenix,US
4d90b5601d06b1f7855e7a3b,78ec05ae74f74999bc5765bae12b422a,351,Airport Terminal,Travel & Transport,33.436299,-111.999556,Phoenix,US
4ad11910f964a520bbdc20e3,53efab68625543b88fe4eb1111a86dd7,66,Fast Food Restaurant,Food,33.638697,-112.167196,Phoenix,US
4be37f84f07b0f47585af843,23c7880a7c924528b1c9a275a82386b9,203,Theater,Arts & Entertainment,33.483115999999995,-112.088528,Phoenix,US
4ce76f81e888f04d25623c6b,6329a534ffce490caf6c0d498db4719f,81,Nightclub,Nightlife Spot,33.448394,-112.071877,Phoenix,US
4c550afbf5f3d13a2a4018fb,e8207cc6255e4e30a0c3afc4631f263f,138,Cocktail Bar,Nightlife Spot,33.456067,-112.074073,Phoenix,US
4b550f58f964a520a9d927e3,d65836ca9e304c19b593a09a5653bad4,359,Hotel,Travel & Transport,33.449490000000004,-112.072048,Phoenix,US
4c34b66116adc928009ac59c,b7feb7cd921e4090858f2105033cbc61,250,Gym,Outdoors & Recreation,33.510018,-111.985694,Phoenix,US
4b33b402f964a520531d25e3,74ffe8db85fc46df8add6a57773721f2,73,Record Shop,Shop & Service,33.611789,-112.110642,Phoenix,US
4a62142bf964a520ffc21fe3,ebb3b187f7f4428cb11a4ee8769d806c,104,Electronics Store,Shop & Service,33.609576000000004,-112.12383,Phoenix,US
4be61a4bcf200f47ef3c143c,fc331a5b59d640c6bb463fdce01c0a1f,340,Building,Professional & Other Places,33.463282,-111.98988,Phoenix,US
4b3183b9f964a520420825e3,e6efad379be046779b363be07120fb3b,108,Coffee Shop,Drink,33.479278,-111.987484,Phoenix,US
4b633f2df964a5204e6d2ae3,f12245572898439886377df1f8db3fde,156,American Restaurant,Food,33.551888,-112.26923899999998,Phoenix,US
4ae4e91bf964a5205a9f21e3,82dd00b83524497bab2d367f1e2b36ab,287,Grocery Store,Shop & Service,33.551302,-112.057221,Phoenix,US
413ba880f964a520311b1fe3,378c0bf7698c4c76aa4003d83c7934e3,47,Chinese Restaurant,Food,33.485847,-112.06903,Phoenix,US
4a429f4df964a5200aa61fe3,6e03750d63eb4afa9c0a00b350ceca31,370,Pub,Nightlife Spot,33.449539,-112.065457,Phoenix,US
4a8f680ef964a520311520e3,186b77490e434231b2882cf2ff2d2495,286,Music Venue,Arts & Entertainment,33.454395,-112.014653,Phoenix,US
4a7e8dc5f964a52001f21fe3,a0789738c36845869f3ce75c08096039,88,Miscellaneous Shop,Shop & Service,33.470614000000005,-112.222896,Phoenix,US
4b1c59b4f964a5206c0624e3,bfe53afadf5946498ef9af628547515c,248,Pizza Place,Food,33.507456,-112.040956,Phoenix,US
4f0791cce4b071c574a07af9,e8207cc6255e4e30a0c3afc4631f263f,138,Cocktail Bar,Nightlife Spot,33.495174,-111.989854,Phoenix,US
5053ca0f4c7f6b5a28e9c718,c8f5a88cbd0d4c2a9768889ee697d478,148,Convenience Store,Shop & Service,33.611435,-112.119214,Phoenix,US
4abfba97f964a520e19120e3,134ed7259fbb41fd9b5902acbb6be6d1,68,Department Store,Shop & Service,33.553913,-112.260361,Phoenix,US
4be4b7502457a5932facaa15,29d6e9a35fd04c47a217efed60a14877,49,Church,Professional & Other Places,33.552657,-112.090658,Phoenix,US
4ac199f3f964a520909720e3,d8a4c0db54bf4c6da5102833c19f8a36,39,Diner,Food,33.509482,-112.065276,Phoenix,US
4b74c998f964a5200bf22de3,32b784165f5246c8bb4b2b6c7eeb3132,338,Performing Arts Venue,Arts & Entertainment,33.496993,-112.06942,Phoenix,US
4b0fddbaf964a5209f6523e3,ebb3b187f7f4428cb11a4ee8769d806c,104,Electronics Store,Shop & Service,33.609909,-112.118253,Phoenix,US
4b2430e5f964a5205a6324e3,ae687552505e43c7a99d4f3a77bb130d,288,Multiplex,Arts & Entertainment,33.508511,-112.027601,Phoenix,US
413ba880f964a5202e1b1fe3,8972bfc122c3429eb7222730baaac161,268,Sushi Restaurant,Food,33.509699,-112.061063,Phoenix,US
4d4a39787d36f04d4b9119e5,576c4c7484bd4ec5b96b52a17db81bac,352,General Travel,Travel & Transport,33.436692,-112.008848,Phoenix,US
4eaff6db9911374b170ba2aa,c8f5a88cbd0d4c2a9768889ee697d478,148,Convenience Store,Shop & Service,33.581407,-112.119656,Phoenix,US
4b523c5bf964a520c07127e3,16cc1f7d21c748beafcc3a4e0a4c770f,14,Bar,Nightlife Spot,33.483722,-112.047395,Phoenix,US
4e2666998877d0ffee80b7ef,576c4c7484bd4ec5b96b52a17db81bac,352,General Travel,Travel & Transport,33.447844,-111.988,Phoenix,US
4eb1ae2fcc21adeaf82caffb,78ec05ae74f74999bc5765bae12b422a,351,Airport Terminal,Travel & Transport,33.437055,-112.001833,Phoenix,US
4e2f433ac65b80dfd83f5975,78ec05ae74f74999bc5765bae12b422a,351,Airport Terminal,Travel & Transport,33.437116,-111.996808,Phoenix,US
4bc581055935c9b61002a6d2,f61eeed0b51040d49e94b6dac8ca42a9,111,Breakfast Spot,Food,33.475357,-111.98655,Phoenix,US
4dbfa8c5ec8eb17e192e1bc3,da5c52ae1a514f07be40e2039a1d8302,357,Residential Building (Apartment / Condo),Residence,33.536654,-112.20538,Phoenix,US
4f950c6ae4b0ab5f0b228824,da5c52ae1a514f07be40e2039a1d8302,357,Residential Building (Apartment / Condo),Residence,33.452234000000004,-112.065408,Phoenix,US
4c0021dcc30a2d7f0912121d,4331c0b145b54e08954ad86768e5526d,236,Burger Joint,Food,33.581555,-112.120681,Phoenix,US
4ac3ae33f964a520599c20e3,e6efad379be046779b363be07120fb3b,108,Coffee Shop,Drink,33.488547,-112.065428,Phoenix,US
4b0b3af5f964a520152f23e3,e6efad379be046779b363be07120fb3b,108,Coffee Shop,Drink,33.553904,-112.098558,Phoenix,US
4a862dcff964a520ac0020e3,9f035cf56348426095efab7b9de4957d,42,Lounge,Nightlife Spot,33.494772,-112.023554,Phoenix,US
4c4e2076f53d0f47e9aa0da6,3a2c484c0a3a46b1bc79513aedd51478,126,College Gym,College & University,33.404853,-111.96541,Phoenix,US
4c52f242048b1b8d40443131,725570cd0acc4d93ad23408f11cfc934,114,Gym / Fitness Center,Outdoors & Recreation,33.508563,-112.012097,Phoenix,US
4d61be4b5b276dcbf65227c6,17320b59f8a54c3b8547c959e373b4eb,147,Restaurant,Food,33.48862800000001,-111.96035,Phoenix,US
4b3a440ef964a5204b6325e3,0935da85d4ae4f6cbebd37d1df042005,185,Bank,Shop & Service,33.509972999999995,-111.986457,Phoenix,US
4db235964df0b371d10bd2a0,57a6934e11db4d998674871654476fb8,257,Ice Cream Shop,Food,33.513535,-112.073379,Phoenix,US
4b54e606f964a5200bd227e3,daca399a7f4b437287496d39540e8c21,22,Gastropub,Food,33.47457,-112.064849,Phoenix,US
4b3be4cff964a520cc7d25e3,53efab68625543b88fe4eb1111a86dd7,66,Fast Food Restaurant,Food,33.508885,-112.063109,Phoenix,US
4a465d77f964a520c1a81fe3,6e03750d63eb4afa9c0a00b350ceca31,370,Pub,Nightlife Spot,33.455872,-112.072336,Phoenix,US
4cc872487be65481c7032e23,fee1b155d4b848a8a375e6868dc2242b,161,College Administrative Building,College & University,33.5689,-112.188928,Phoenix,US
4c13986fa1010f47bad34a18,5edc8207130a48ffbfe498c723b64a78,29,Bagel Shop,Food,33.466302,-112.065932,Phoenix,US
4ae706ccf964a52004a821e3,e6efad379be046779b363be07120fb3b,108,Coffee Shop,Drink,33.435381,-111.997848,Phoenix,US
4b437951f964a52040e125e3,820c8443a1754652ab6fcf704557f148,375,New American Restaurant,Food,33.537822,-112.064655,Phoenix,US
4c0c0d44009a0f47710fecbf,78ec05ae74f74999bc5765bae12b422a,351,Airport Terminal,Travel & Transport,33.434987,-111.996775,Phoenix,US
4bacf413f964a5208b1d3be3,d3290a46c9eb4cb99ce99764282e277c,232,Office,Professional & Other Places,33.46775,-112.065954,Phoenix,US
4a332e5df964a5200e9b1fe3,ae687552505e43c7a99d4f3a77bb130d,288,Multiplex,Arts & Entertainment,33.385264,-111.965468,Phoenix,US
4ac11e0ef964a520e89520e3,7ab55411dbce49ccbf61c9545a64890a,92,Sandwich Place,Food,33.452226,-112.069262,Phoenix,US
4a46624ff964a520cba81fe3,ae77bb68eff04837bc267b21bc7862c4,199,Bakery,Food,33.51027,-112.028908,Phoenix,US
4d77e8a30bae236a4ad27014,79bd60b3a13f4e8fb19bae970aa52709,224,Doctor's Office,Professional & Other Places,33.479989,-112.07562,Phoenix,US
4b0db3d3f964a520414e23e3,28e6f80ad4054eda8341b3a553212021,23,Japanese Restaurant,Food,33.537392,-112.047193,Phoenix,US
4add0ed9f964a520d26321e3,2880581db1174a3e92cd69b7109f496e,215,Clothing Store,Shop & Service,33.507914,-112.042313,Phoenix,US
4b342dc4f964a520d72525e3,af2a3ecb7a1c46e8b136a82d4110ac64,290,Mexican Restaurant,Food,33.511316,-112.047222,Phoenix,US
4abe9a5ef964a520c78e20e3,82850b4350904bf7ae2306ab043e7754,282,Sports Bar,Nightlife Spot,33.495459000000004,-112.003131,Phoenix,US
4c116470416620a14205d9e4,820320f0543841c1bd3e7508852147f2,193,Gas Station / Garage,Shop & Service,33.480796000000005,-112.012347,Phoenix,US
4f98dc83e4b0b41ef3185e71,d11166e1718548a090ac0d4a663e8907,289,Tech Startup,Professional & Other Places,33.50883,-112.269106,Phoenix,US
4ecffa130aafd1868e68730a,b7feb7cd921e4090858f2105033cbc61,250,Gym,Outdoors & Recreation,33.655858,-112.063312,Phoenix,US
4e91afd52c5b7295bc4f7ec6,c1a4e83dc95047e9a9d8e74f445af21c,176,Outdoors & Recreation,Outdoors & Recreation,33.551109000000004,-112.066154,Phoenix,US
4aff1b00f964a5204f3422e3,a41b788b852f4daeb030f073a6c25c07,264,Bus Station,Travel & Transport,33.436240000000005,-112.035313,Phoenix,US
4bdcc6e43904a59396bc4f9e,7464c69fd2244709bacb4b9d67981cee,98,Dog Run,Outdoors & Recreation,33.570793,-112.08973799999998,Phoenix,US
4aad44acf964a520615f20e3,ae77bb68eff04837bc267b21bc7862c4,199,Bakery,Food,33.666983,-112.202484,Phoenix,US
4ea5c084dab47252715093e5,d3a8eae06e124c0892f7d4ffccb701e7,37,Bridge,Outdoors & Recreation,33.46204,-112.073786,Phoenix,US
4e2f6eddae60231c032d981f,a8775f7b2738469e9f4d53fcdc69a200,85,Vietnamese Restaurant,Food,33.472105,-112.06488600000002,Phoenix,US
4b4b8b8af964a520c69f26e3,82dd00b83524497bab2d367f1e2b36ab,287,Grocery Store,Shop & Service,33.424099,-112.239901,Phoenix,US
4ada8485f964a520312321e3,23c7880a7c924528b1c9a275a82386b9,203,Theater,Arts & Entertainment,33.451021000000004,-112.070666,Phoenix,US
4b259099f964a520e37324e3,820c8443a1754652ab6fcf704557f148,375,New American Restaurant,Food,33.477218,-112.073507,Phoenix,US
4b3fb4bdf964a520b6ac25e3,7ab55411dbce49ccbf61c9545a64890a,92,Sandwich Place,Food,33.56446,-112.28821200000002,Phoenix,US
4cb90661c7228cfaeb260dce,82dd00b83524497bab2d367f1e2b36ab,287,Grocery Store,Shop & Service,33.480114,-112.021284,Phoenix,US
4bfc67562fcf9521aec735b4,9a05945e7e7b4b53b34196d9b90167ec,217,Coworking Space,Professional & Other Places,33.448004,-112.059152,Phoenix,US
413ba880f964a520ef1b1fe3,bfe53afadf5946498ef9af628547515c,248,Pizza Place,Food,33.449168,-112.065654,Phoenix,US
466827eaf964a5208c471fe3,16cc1f7d21c748beafcc3a4e0a4c770f,14,Bar,Nightlife Spot,33.458228000000005,-112.067767,Phoenix,US
4f8f1bb2e4b040530b95a5e8,820c8443a1754652ab6fcf704557f148,375,New American Restaurant,Food,33.472768,-112.056148,Phoenix,US
4b2c0c4cf964a52063c024e3,f12245572898439886377df1f8db3fde,156,American Restaurant,Food,33.639203,-112.066561,Phoenix,US
4ae2007ff964a520ab8921e3,af2a3ecb7a1c46e8b136a82d4110ac64,290,Mexican Restaurant,Food,33.581505,-112.124913,Phoenix,US
4ef523c8c5123a724ed744e0,57a6934e11db4d998674871654476fb8,257,Ice Cream Shop,Food,33.465583,-112.082245,Phoenix,US
4a99627cf964a5200d2e20e3,d8a4c0db54bf4c6da5102833c19f8a36,39,Diner,Food,33.513409,-112.047937,Phoenix,US
4c6edcaa9c6d6dcb4fc4cd7a,cc09f63732ee46aeb27e150bebad15e9,167,Indie Movie Theater,Arts & Entertainment,33.457059,-112.07093799999998,Phoenix,US
4aeb6f0ef964a52003c221e3,aab47d91a01b432aa2d5d2973bd9ac0e,240,Car Wash,Shop & Service,33.466103000000004,-112.069929,Phoenix,US
4d0016b36923721e17cbc23b,dbd823ee65ec431899cb2a441ae6142f,238,Road,Travel & Transport,33.461789,-112.268708,Phoenix,US
413ba880f964a520d81b1fe3,16cc1f7d21c748beafcc3a4e0a4c770f,14,Bar,Nightlife Spot,33.449613,-112.071539,Phoenix,US
4b4ebdf1f964a520d8f426e3,af2a3ecb7a1c46e8b136a82d4110ac64,290,Mexican Restaurant,Food,33.429319,-112.074182,Phoenix,US
4b944f4df964a520087434e3,8972bfc122c3429eb7222730baaac161,268,Sushi Restaurant,Food,33.510413,-112.026258,Phoenix,US
4b08a5caf964a520351023e3,cae079240fe94f6da2d9525b8274c175,34,Mall,Shop & Service,33.452809,-112.069228,Phoenix,US
4f58beb9e4b0a386de7139b3,dbd823ee65ec431899cb2a441ae6142f,238,Road,Travel & Transport,33.385883,-111.960758,Phoenix,US
413ba880f964a5200c1c1fe3,16cc1f7d21c748beafcc3a4e0a4c770f,14,Bar,Nightlife Spot,33.429753000000005,-111.94448,Phoenix,US
4f921105e4b09d83508bd9b0,6329a534ffce490caf6c0d498db4719f,81,Nightclub,Nightlife Spot,33.448462,-112.07197,Phoenix,US
4ecd28ec775b0e780e02d89e,d65836ca9e304c19b593a09a5653bad4,359,Hotel,Travel & Transport,33.501475,-112.07438,Phoenix,US
4cfd702e2d80a14382d856d8,12104e23b34f4b659166af7c1fca1b2a,245,Home (private),Residence,33.491577,-112.017829,Phoenix,US
4c1c0bcab306c928284463b7,9df4601a8c6641d5acbe50c2bef98b74,159,Drugstore / Pharmacy,Shop & Service,33.508426,-112.238367,Phoenix,US
4bcceb6e511f95215ceeb3c7,af2a3ecb7a1c46e8b136a82d4110ac64,290,Mexican Restaurant,Food,33.437279,-112.001903,Phoenix,US
4fa03f87e4b0f307264d1a52,fc331a5b59d640c6bb463fdce01c0a1f,340,Building,Professional & Other Places,33.666939,-112.085412,Phoenix,US
4c1176ec6e5dc9b61f2db02d,fc331a5b59d640c6bb463fdce01c0a1f,340,Building,Professional & Other Places,33.671669,-112.116483,Phoenix,US
4a621697f964a5200bc31fe3,9732d1d738ab4ae5b231dbccc73f386f,177,Hospital,Professional & Other Places,33.479474,-112.042415,Phoenix,US
4e8beac877c8b66013c4818f,064daa50ba5d4246b72ea2f93a19a78a,354,Gay Bar,Nightlife Spot,33.512512,-112.064125,Phoenix,US
4148d780f964a520c81c1fe3,13c40937b0f24301b66e33cd97082147,332,Dive Bar,Nightlife Spot,33.459131,-112.091525,Phoenix,US
4a7d9a16f964a520e7ee1fe3,ae77bb68eff04837bc267b21bc7862c4,199,Bakery,Food,33.537955,-112.057421,Phoenix,US
4f747f01e4b0250b7157a3e8,fc331a5b59d640c6bb463fdce01c0a1f,340,Building,Professional & Other Places,33.442362,-112.095368,Phoenix,US
4e8709a19a52c2741de8f0ab,12104e23b34f4b659166af7c1fca1b2a,245,Home (private),Residence,33.541088,-112.208596,Phoenix,US
4b784beef964a5202fc32ee3,82dd00b83524497bab2d367f1e2b36ab,287,Grocery Store,Shop & Service,33.554187,-112.132324,Phoenix,US
4a711bb6f964a52021d91fe3,c8f5a88cbd0d4c2a9768889ee697d478,148,Convenience Store,Shop & Service,33.539086,-112.203522,Phoenix,US
4b75b95bf964a520f11f2ee3,7ab55411dbce49ccbf61c9545a64890a,92,Sandwich Place,Food,33.507308,-112.047091,Phoenix,US
4c677e1bb80abe9a9875d0e5,82850b4350904bf7ae2306ab043e7754,282,Sports Bar,Nightlife Spot,33.561357,-112.073743,Phoenix,US
4ada266cf964a520281f21e3,ea13a31b9c984f549d7bb4e63cf51815,310,Hardware Store,Shop & Service,33.507158000000004,-112.274089,Phoenix,US
4b8d6db6f964a52040fb32e3,fc331a5b59d640c6bb463fdce01c0a1f,340,Building,Professional & Other Places,33.486015,-112.073287,Phoenix,US
4c6e98e3f338236af7d50a1b,eaddb3d18dd04b5182fecc6ac0ef219f,221,College Academic Building,College & University,33.487342,-112.291978,Phoenix,US
4ba17e6cf964a520c7bb37e3,f12245572898439886377df1f8db3fde,156,American Restaurant,Food,33.508829,-112.037906,Phoenix,US
4b215337f964a5202c3a24e3,ef84385914bb4543ba1bedea47f20dab,299,Seafood Restaurant,Food,33.579052000000004,-112.122173,Phoenix,US
4ac3babef964a520959c20e3,ae77bb68eff04837bc267b21bc7862c4,199,Bakery,Food,33.464326,-112.274231,Phoenix,US
4f90aa40e4b0fd3d6494ee62,12104e23b34f4b659166af7c1fca1b2a,245,Home (private),Residence,33.586442,-112.13706,Phoenix,US
4c0468bef56c2d7f2f491e66,af2a3ecb7a1c46e8b136a82d4110ac64,290,Mexican Restaurant,Food,33.639778,-112.067551,Phoenix,US
4bf44cfe94af2d7f936e3a72,d3290a46c9eb4cb99ce99764282e277c,232,Office,Professional & Other Places,33.454781,-111.976293,Phoenix,US
4bc37ef8dce4eee16ea1719d,d65836ca9e304c19b593a09a5653bad4,359,Hotel,Travel & Transport,33.532672,-112.263617,Phoenix,US
4b24182bf964a520f96024e3,f12245572898439886377df1f8db3fde,156,American Restaurant,Food,33.44693,-112.07104,Phoenix,US
4bfed2cd4e5d0f47de377d1f,3e60e8b6f8394e45ac73c998b177a959,337,Design Studio,Shop & Service,33.491276,-112.072922,Phoenix,US
45a752e3f964a52012411fe3,6e03750d63eb4afa9c0a00b350ceca31,370,Pub,Nightlife Spot,33.611086,-111.99858799999998,Phoenix,US
4a6dd40af964a52018d31fe3,043264505aa546a7a8cbc7f6fffbad5e,326,Salad Place,Food,33.509599,-112.071724,Phoenix,US
4a7cc599f964a52097ed1fe3,4333217313894da9950a075d0f1c0268,101,Resort,Travel & Transport,33.529196,-111.972442,Phoenix,US
4c492b626594be9adec2b824,7cb5ac3501374809a4f378e7b01475ae,295,Pool,Outdoors & Recreation,33.48572,-112.073256,Phoenix,US
4ae3c670f964a520db9821e3,d28ecd5a004e4972896b64560c14990a,278,Light Rail,Travel & Transport,33.459222,-112.073977,Phoenix,US
4a561b94f964a52073b41fe3,f12245572898439886377df1f8db3fde,156,American Restaurant,Food,33.509492,-112.040886,Phoenix,US
4bb64c0c1344b71363499d04,af2a3ecb7a1c46e8b136a82d4110ac64,290,Mexican Restaurant,Food,33.479837,-112.118912,Phoenix,US
4b61e82ff964a5206e2a2ae3,0dbf566de15244418220b684c192a76a,374,Hobby Shop,Shop & Service,33.508949,-112.05861000000002,Phoenix,US
4cc09e3e22ce4688db863847,5e930312803d481ca2d765dfe8d703fa,378,Pet Store,Shop & Service,33.362707,-112.093312,Phoenix,US
4b26e61ff964a520b68224e3,82dd00b83524497bab2d367f1e2b36ab,287,Grocery Store,Shop & Service,33.376161,-112.166505,Phoenix,US
4a8deb48f964a5206f1120e3,bfe53afadf5946498ef9af628547515c,248,Pizza Place,Food,33.509523,-112.060233,Phoenix,US
4b533b46f964a520529327e3,d8a4c0db54bf4c6da5102833c19f8a36,39,Diner,Food,33.479997999999995,-112.032131,Phoenix,US
4b6cb7baf964a520bd4e2ce3,5e930312803d481ca2d765dfe8d703fa,378,Pet Store,Shop & Service,33.522748,-112.097325,Phoenix,US
4adfc963f964a5206e7d21e3,82dd00b83524497bab2d367f1e2b36ab,287,Grocery Store,Shop & Service,33.604076,-111.98626000000002,Phoenix,US
413ba880f964a520e21b1fe3,82850b4350904bf7ae2306ab043e7754,282,Sports Bar,Nightlife Spot,33.6401,-112.154004,Phoenix,US
4be9b67fb3352d7fdc5054d2,82dd00b83524497bab2d367f1e2b36ab,287,Grocery Store,Shop & Service,33.496592,-112.101405,Phoenix,US
4a3d9599f964a5207aa21fe3,820c8443a1754652ab6fcf704557f148,375,New American Restaurant,Food,33.511313,-111.995679,Phoenix,US
4bb02f38f964a520713b3ce3,d8a4c0db54bf4c6da5102833c19f8a36,39,Diner,Food,33.568919,-112.118259,Phoenix,US
4e4447947d8bee28239b5c9b,d3a8eae06e124c0892f7d4ffccb701e7,37,Bridge,Outdoors & Recreation,33.432379,-111.948997,Phoenix,US
4fa74b2be4b0d607ba6d16a6,12104e23b34f4b659166af7c1fca1b2a,245,Home (private),Residence,33.491122,-112.077445,Phoenix,US
4fa7fe32e4b00c58462650ca,fc331a5b59d640c6bb463fdce01c0a1f,340,Building,Professional & Other Places,33.497796,-112.147123,Phoenix,US
4b2c37b2f964a52002c424e3,a4d7a629654743f1bffb5a494383a735,371,Burrito Place,Food,33.377186,-112.029858,Phoenix,US
4f8cb5f1e4b03758900ae5c0,d3290a46c9eb4cb99ce99764282e277c,232,Office,Professional & Other Places,33.394441,-111.959844,Phoenix,US
4ab29eb7f964a520aa6b20e3,7ab55411dbce49ccbf61c9545a64890a,92,Sandwich Place,Food,33.422177000000005,-111.945492,Phoenix,US
4ada6a3bf964a520672221e3,53efab68625543b88fe4eb1111a86dd7,66,Fast Food Restaurant,Food,33.579912,-112.121531,Phoenix,US
4f1c32aae4b0817d3d789327,e6efad379be046779b363be07120fb3b,108,Coffee Shop,Drink,33.531367,-112.013384,Phoenix,US
4a6fac86f964a520c7d61fe3,d65836ca9e304c19b593a09a5653bad4,359,Hotel,Travel & Transport,33.460348,-111.985904,Phoenix,US
4e91a17cd22dccc37f2f198f,e6efad379be046779b363be07120fb3b,108,Coffee Shop,Drink,33.495296999999994,-111.979884,Phoenix,US
4b020844f964a520554722e3,53efab68625543b88fe4eb1111a86dd7,66,Fast Food Restaurant,Food,33.509394,-111.988023,Phoenix,US
4ba29112f964a520f20438e3,4331c0b145b54e08954ad86768e5526d,236,Burger Joint,Food,33.509482,-111.995788,Phoenix,US
4f1d5777e4b0c74ef3c39c56,da5c52ae1a514f07be40e2039a1d8302,357,Residential Building (Apartment / Condo),Residence,33.50293,-112.202946,Phoenix,US
4bc3e85cdce4eee1b3ce719d,d65836ca9e304c19b593a09a5653bad4,359,Hotel,Travel & Transport,33.493603,-112.082105,Phoenix,US
4b4cf495f964a5206cc526e3,4add2bb4905a4b37b9a5d00270c79242,263,Steakhouse,Food,33.575340999999995,-112.11630900000002,Phoenix,US
4b11cf44f964a520268523e3,c966a4514ba94dac86e68f714dc74f2c,122,Post Office,Professional & Other Places,33.556878999999995,-112.112222,Phoenix,US
4eec833abe7b6d62ff63c395,d65836ca9e304c19b593a09a5653bad4,359,Hotel,Travel & Transport,33.44951,-112.073082,Phoenix,US
4ab98e8af964a520df7f20e3,a4d7a629654743f1bffb5a494383a735,371,Burrito Place,Food,33.51028400000001,-112.046288,Phoenix,US
4a4a184ef964a5208bab1fe3,186b77490e434231b2882cf2ff2d2495,286,Music Venue,Arts & Entertainment,33.471486,-112.232847,Phoenix,US
4a46e28cf964a5209ea91fe3,af2a3ecb7a1c46e8b136a82d4110ac64,290,Mexican Restaurant,Food,33.492596,-112.073416,Phoenix,US
4f9e2a03e4b0e9595c537e63,e53277d905564b2d80ec9eba0e73996b,324,General Entertainment,Arts & Entertainment,33.481915,-112.010338,Phoenix,US
4dc426b1814d503d3b165fc9,d3290a46c9eb4cb99ce99764282e277c,232,Office,Professional & Other Places,33.451926,-112.070968,Phoenix,US
4b2edcbdf964a52095e724e3,e6efad379be046779b363be07120fb3b,108,Coffee Shop,Drink,33.508003,-112.275574,Phoenix,US
4b082213f964a5207c0423e3,2880581db1174a3e92cd69b7109f496e,215,Clothing Store,Shop & Service,33.508136,-112.040788,Phoenix,US
4b7365daf964a5209bac2de3,f12245572898439886377df1f8db3fde,156,American Restaurant,Food,33.57993,-112.122119,Phoenix,US
4afcee2cf964a520932622e3,6e03750d63eb4afa9c0a00b350ceca31,370,Pub,Nightlife Spot,33.50898,-112.065886,Phoenix,US
4df63933c65bf55ee534950d,da5c52ae1a514f07be40e2039a1d8302,357,Residential Building (Apartment / Condo),Residence,33.611876,-112.102854,Phoenix,US
4a6bc518f964a520e7cf1fe3,5f1f19a541254cd7b23089e3fbdc26e1,267,University,College & University,33.51126,-112.12999,Phoenix,US
4e89ace693ad35ed6f3b846c,12104e23b34f4b659166af7c1fca1b2a,245,Home (private),Residence,33.519802,-112.208596,Phoenix,US
4ebb282fb803cf8e0e7e8871,65c2be14fae44efba124a3d1f6edd735,136,Italian Restaurant,Food,33.509035,-111.995103,Phoenix,US
4b749156f964a52098e42de3,69367fdf47304da7b98ae02076f5c47f,328,Rental Car Location,Travel & Transport,33.430832,-112.044411,Phoenix,US
4ba8b802f964a5206fe939e3,d3290a46c9eb4cb99ce99764282e277c,232,Office,Professional & Other Places,33.508156,-112.043192,Phoenix,US
4f29afb06d861d463826f37b,e6efad379be046779b363be07120fb3b,108,Coffee Shop,Drink,33.505904,-112.074194,Phoenix,US
4b63b5eff964a5208e8d2ae3,f7ea7ab123b247f4858b7aceaccb5e0b,266,Arcade,Arts & Entertainment,33.583069,-112.154848,Phoenix,US
4a2f4efff964a520c0981fe3,12104e23b34f4b659166af7c1fca1b2a,245,Home (private),Residence,33.570124,-112.053599,Phoenix,US
4b74a840f964a520a8ea2de3,f12245572898439886377df1f8db3fde,156,American Restaurant,Food,33.531686,-111.961026,Phoenix,US
4b0872a6f964a520160c23e3,9732d1d738ab4ae5b231dbccc73f386f,177,Hospital,Professional & Other Places,33.609794,-112.179379,Phoenix,US
4cd78a4689eb6dcbfb08361e,12104e23b34f4b659166af7c1fca1b2a,245,Home (private),Residence,33.461819,-112.005905,Phoenix,US
4b2bce8ff964a5205cbb24e3,378c0bf7698c4c76aa4003d83c7934e3,47,Chinese Restaurant,Food,33.455493,-111.98888999999998,Phoenix,US
4ee9f0d9be7b7263da1be0d9,8587dc8e63084709b52cfe210e318ea0,107,Fried Chicken Joint,Food,33.479935,-111.988343,Phoenix,US
4d9a909eb4fa3704141a890d,78ec05ae74f74999bc5765bae12b422a,351,Airport Terminal,Travel & Transport,33.436651,-111.999259,Phoenix,US
4b67328ef964a520d9402be3,e9eda9dceecd4487a2e88f31d0619ae0,220,Medical Center,Professional & Other Places,33.466224,-112.056775,Phoenix,US
4a75d95bf964a5206ce11fe3,82dd00b83524497bab2d367f1e2b36ab,287,Grocery Store,Shop & Service,33.511102,-112.014792,Phoenix,US
4b4beb93f964a52044ab26e3,b8e73a846beb4e4e85195e50569576ac,131,Community College,College & University,33.449812,-111.997032,Phoenix,US
4bdb28473904a5933508499e,25029f69ddf24fabadc7f5741afb5431,187,Government Building,Professional & Other Places,33.448305,-112.077122,Phoenix,US
4aa576f9f964a5207b4820e3,ae77bb68eff04837bc267b21bc7862c4,199,Bakery,Food,33.583543,-111.977231,Phoenix,US
4b7348dbf964a52050a62de3,82dd00b83524497bab2d367f1e2b36ab,287,Grocery Store,Shop & Service,33.517672,-112.06353,Phoenix,US
4e19ba1db61c8f9ada580c54,903c505578fe4575bf14d12508445bfa,57,Airport Gate,Travel & Transport,33.437387,-111.99923,Phoenix,US
4b89568df964a520c22c32e3,e83d090079ac4ed5a09a54ff4ae63724,372,Park,Outdoors & Recreation,33.459659,-112.076297,Phoenix,US
4cfd1d29c6cca35d0b2a9532,9a05945e7e7b4b53b34196d9b90167ec,217,Coworking Space,Professional & Other Places,33.410984,-112.013063,Phoenix,US
4ced709794b99eb0656e1f56,725570cd0acc4d93ad23408f11cfc934,114,Gym / Fitness Center,Outdoors & Recreation,33.576974,-112.125629,Phoenix,US
4ad73509f964a520fb0821e3,4333217313894da9950a075d0f1c0268,101,Resort,Travel & Transport,33.37523,-111.97154,Phoenix,US
4bd1da8d046076b0c4a37271,af2a3ecb7a1c46e8b136a82d4110ac64,290,Mexican Restaurant,Food,33.538059000000004,-112.063988,Phoenix,US
4a93021ff964a5207b1e20e3,ef84385914bb4543ba1bedea47f20dab,299,Seafood Restaurant,Food,33.495719,-111.986657,Phoenix,US
4ab6ac14f964a520857820e3,19cbf0f254504174a13850214308ad11,376,Furniture / Home Store,Shop & Service,33.50977,-112.043605,Phoenix,US
4fba648de4b068706b7c7f36,d3290a46c9eb4cb99ce99764282e277c,232,Office,Professional & Other Places,33.480745,-111.991033,Phoenix,US
4fb9afd1e4b05cad1ca6d4b1,12104e23b34f4b659166af7c1fca1b2a,245,Home (private),Residence,33.603247,-112.160906,Phoenix,US
4fba8cdee4b09a2fd5272af3,d3290a46c9eb4cb99ce99764282e277c,232,Office,Professional & Other Places,33.404187,-111.977197,Phoenix,US
4bc3aeae920eb71357d81d2c,820320f0543841c1bd3e7508852147f2,193,Gas Station / Garage,Shop & Service,33.50267,-112.100447,Phoenix,US
4cfc0328d8468cfad8f2f76b,da5c52ae1a514f07be40e2039a1d8302,357,Residential Building (Apartment / Condo),Residence,33.612609,-112.175506,Phoenix,US
4b6497baf964a5205bc02ae3,e6efad379be046779b363be07120fb3b,108,Coffee Shop,Drink,33.465340999999995,-112.072354,Phoenix,US
4c870f1e9c808cfad7b7111e,78ec05ae74f74999bc5765bae12b422a,351,Airport Terminal,Travel & Transport,33.434235,-111.996742,Phoenix,US
4f22cf4ee4b0476577fca825,d3290a46c9eb4cb99ce99764282e277c,232,Office,Professional & Other Places,33.484561,-112.077366,Phoenix,US
4c1d811fb4e62d7feaf3dc93,186b77490e434231b2882cf2ff2d2495,286,Music Venue,Arts & Entertainment,33.46962,-112.096916,Phoenix,US
4ddeff8a45dd95acd4e6098c,e53277d905564b2d80ec9eba0e73996b,324,General Entertainment,Arts & Entertainment,33.449121000000005,-112.070048,Phoenix,US
4b44e9c8f964a52094ff25e3,910b05ae48e14b0bb47b6550159156e3,155,Asian Restaurant,Food,33.507719,-112.045722,Phoenix,US
4ab29e1df964a520a76b20e3,af2a3ecb7a1c46e8b136a82d4110ac64,290,Mexican Restaurant,Food,33.509526,-112.04254,Phoenix,US
4b802f9ff964a520615a30e3,af2a3ecb7a1c46e8b136a82d4110ac64,290,Mexican Restaurant,Food,33.469165999999994,-112.047471,Phoenix,US
4c40927dd7fad13a542c06da,1c70457360b5457d96d1d920f15cc5af,128,Fire Station,Professional & Other Places,33.445996,-112.057316,Phoenix,US
4c8c6400f0ce236a372b18ef,820320f0543841c1bd3e7508852147f2,193,Gas Station / Garage,Shop & Service,33.437243,-112.117682,Phoenix,US
4fa93dfce4b0144c6d61220e,9a05945e7e7b4b53b34196d9b90167ec,217,Coworking Space,Professional & Other Places,33.480389,-111.947554,Phoenix,US
4fbe76fbe4b0ad49c0c01f73,da5c52ae1a514f07be40e2039a1d8302,357,Residential Building (Apartment / Condo),Residence,33.463522,-112.028608,Phoenix,US
4bc93b9cb6c49c74c43a8e91,e83d090079ac4ed5a09a54ff4ae63724,372,Park,Outdoors & Recreation,33.428422,-111.951798,Phoenix,US
4a3854cbf964a520e99e1fe3,32b784165f5246c8bb4b2b6c7eeb3132,338,Performing Arts Venue,Arts & Entertainment,33.431816999999995,-111.948838,Phoenix,US
4cc5abb301fb236a0ffcb2ba,d3290a46c9eb4cb99ce99764282e277c,232,Office,Professional & Other Places,33.671349,-112.110819,Phoenix,US
4b22db15f964a520da4e24e3,16cc1f7d21c748beafcc3a4e0a4c770f,14,Bar,Nightlife Spot,33.551978000000005,-112.271893,Phoenix,US
4fbb410fe4b039e2d71c6c4d,09f7f0bd3d9241a1a87a6a89bbc72005,36,Speakeasy,Nightlife Spot,33.512265,-112.060322,Phoenix,US
4b259f3df964a520aa7424e3,f12245572898439886377df1f8db3fde,156,American Restaurant,Food,33.449940999999995,-112.071789,Phoenix,US
4c5c85266ebe2d7f7e52d02e,78ec05ae74f74999bc5765bae12b422a,351,Airport Terminal,Travel & Transport,33.434056,-111.994629,Phoenix,US
4c1f1a70920076b06b4fc4e9,12104e23b34f4b659166af7c1fca1b2a,245,Home (private),Residence,33.601008,-112.172828,Phoenix,US
44e0a40bf964a52005371fe3,f7ea7ab123b247f4858b7aceaccb5e0b,266,Arcade,Arts & Entertainment,33.385371,-111.964974,Phoenix,US
4fc33f12e4b021b6e07c2134,12104e23b34f4b659166af7c1fca1b2a,245,Home (private),Residence,33.59037,-112.172828,Phoenix,US
4e489463483b03d090fcd5fa,12104e23b34f4b659166af7c1fca1b2a,245,Home (private),Residence,33.659203999999995,-112.089368,Phoenix,US
4fc38b32e4b074b879f0fb56,4331c0b145b54e08954ad86768e5526d,236,Burger Joint,Food,33.583138,-111.976565,Phoenix,US
4d3b539836718eec3c69748e,ae77bb68eff04837bc267b21bc7862c4,199,Bakery,Food,33.495686,-111.988978,Phoenix,US
4f2460f3e4b0c41c5293d102,7116134b915945058a0bf129b1a99a48,32,Caf,Drink,33.47421,-112.06489,Phoenix,US
4b44db67f964a5205bfe25e3,f12245572898439886377df1f8db3fde,156,American Restaurant,Food,33.535099,-112.26079,Phoenix,US
4e737275fa76812398da8ead,07562024758f472cbf6b770f02bf3a35,61,Liquor Store,Shop & Service,33.436574,-111.994392,Phoenix,US
4a828816f964a52038f91fe3,134ed7259fbb41fd9b5902acbb6be6d1,68,Department Store,Shop & Service,33.475398,-112.218647,Phoenix,US
4f7e3bd2e4b0a254a0d6f422,6c0104c7e9ad494b91568f043c9a10c0,41,Athletic & Sport,Outdoors & Recreation,33.504715000000004,-112.00956399999998,Phoenix,US
4bdcb76e4b1f952154db670b,903c505578fe4575bf14d12508445bfa,57,Airport Gate,Travel & Transport,33.437975,-111.999194,Phoenix,US
4f58d2d2e4b027eb92518121,1bba130f6dfc4c80acbe8cb0a3e6adf3,201,College Classroom,College & University,33.571255,-112.189656,Phoenix,US
4c41f201a5c5ef3bb662b06f,97cbed00dcbb4a50be73e5ab5f007309,149,Dance Studio,Arts & Entertainment,33.521742,-112.064285,Phoenix,US
4c4f5295eaa1be9a064dbc45,d3290a46c9eb4cb99ce99764282e277c,232,Office,Professional & Other Places,33.458123,-112.074106,Phoenix,US
4bbb2cd47421a593077cc440,d3290a46c9eb4cb99ce99764282e277c,232,Office,Professional & Other Places,33.565709000000005,-112.113246,Phoenix,US
4baf7855f964a52064023ce3,b7feb7cd921e4090858f2105033cbc61,250,Gym,Outdoors & Recreation,33.389593,-111.96534,Phoenix,US
4d5192ffbd6ff04d9c2df30c,af2a3ecb7a1c46e8b136a82d4110ac64,290,Mexican Restaurant,Food,33.538875,-112.098685,Phoenix,US
413ba880f964a520ae1b1fe3,440e2c9ae7424cd0a65f301e47c13100,76,Southern / Soul Food Restaurant,Food,33.435272999999995,-112.074366,Phoenix,US
4b7d8944f964a5202dc52fe3,53efab68625543b88fe4eb1111a86dd7,66,Fast Food Restaurant,Food,33.581579,-112.170235,Phoenix,US
4b724225f964a520e8752de3,da5c52ae1a514f07be40e2039a1d8302,357,Residential Building (Apartment / Condo),Residence,33.461449,-111.985554,Phoenix,US
4a5f6187f964a5207cbf1fe3,4333217313894da9950a075d0f1c0268,101,Resort,Travel & Transport,33.385049,-112.01879,Phoenix,US
4b9932f0f964a5201c6935e3,d65836ca9e304c19b593a09a5653bad4,359,Hotel,Travel & Transport,33.379458,-111.961765,Phoenix,US
4adf5c9ff964a520e47921e3,53efab68625543b88fe4eb1111a86dd7,66,Fast Food Restaurant,Food,33.377595,-111.96403,Phoenix,US
4b9c6da5f964a520f56736e3,53efab68625543b88fe4eb1111a86dd7,66,Fast Food Restaurant,Food,33.596656,-112.168273,Phoenix,US
4fcdbf2ae4b0231f2c9f71ed,12104e23b34f4b659166af7c1fca1b2a,245,Home (private),Residence,33.472479,-112.005905,Phoenix,US
4f740415e4b0c356cfe0a3ba,964a29a513bc49cdb9ee11dd7f367fdc,116,Concert Hall,Arts & Entertainment,33.394474,-111.962929,Phoenix,US
4c87bc1314c4b60c67142235,5785dfae4a5a4d7e9a6569237fe4a5b6,160,Student Center,College & University,33.569423,-112.190261,Phoenix,US
4b556d66f964a52006e427e3,53efab68625543b88fe4eb1111a86dd7,66,Fast Food Restaurant,Food,33.582825,-112.151064,Phoenix,US
4ba3ba2af964a520e35838e3,eaddb3d18dd04b5182fecc6ac0ef219f,221,College Academic Building,College & University,33.566076,-112.112687,Phoenix,US
4fd021dde4b07545a47bef9c,12104e23b34f4b659166af7c1fca1b2a,245,Home (private),Residence,33.396013,-111.958211,Phoenix,US
4f3d72bae4b0e602915e1c86,118bd12678694b2fbb1564053a43674d,269,Airport Lounge,Travel & Transport,33.436931,-111.994375,Phoenix,US
4f205ad3e4b0fa52e51dc0aa,990da1c80a024e73bdcb1496c08293a5,173,Field,Outdoors & Recreation,33.461578,-112.152129,Phoenix,US
4c281fc0783d9c74fa3b8f6b,8563e867974e4fb6980a1161bf686856,298,Tanning Salon,Shop & Service,33.611224,-111.977178,Phoenix,US
4bb53779ef159c74c77874f7,12104e23b34f4b659166af7c1fca1b2a,245,Home (private),Residence,33.396953,-112.125137,Phoenix,US
4b523a3ef964a5201f7127e3,0f1070a4f9664ff58445025f9688d53d,368,Toy / Game Store,Shop & Service,33.611437,-112.164896,Phoenix,US
4be474dabcef2d7f329502e5,134ed7259fbb41fd9b5902acbb6be6d1,68,Department Store,Shop & Service,33.51086,-112.029122,Phoenix,US
4f999981e5e82ef193a1ce45,820c8443a1754652ab6fcf704557f148,375,New American Restaurant,Food,33.447324,-112.073829,Phoenix,US
4fd55b55e4b070e01eef0753,12104e23b34f4b659166af7c1fca1b2a,245,Home (private),Residence,33.621114,-112.065522,Phoenix,US
4a4f71bbf964a52052af1fe3,0528a5c7d0c84edc8f9a6f6dce00046e,188,Wine Bar,Nightlife Spot,33.465356,-112.082852,Phoenix,US
48ba73f9f964a520ca511fe3,8fd42b14d36a433c9f22c1d41a0524c4,170,Science Museum,Arts & Entertainment,33.448819,-112.066129,Phoenix,US
4ad4df6cf964a5205dfc20e3,d55a782437a64a8fabffe979f7f3cab4,190,Greek Restaurant,Food,33.4953,-111.99405,Phoenix,US
4df78f23ae60f0da8839b760,fc331a5b59d640c6bb463fdce01c0a1f,340,Building,Professional & Other Places,33.43349,-112.166171,Phoenix,US
4c0576125753c9284c8239f1,af2a3ecb7a1c46e8b136a82d4110ac64,290,Mexican Restaurant,Food,33.440272,-112.081925,Phoenix,US
4ba3c934f964a520275f38e3,34f6e77409564528b451d5cf84759c73,200,Salon / Barbershop,Shop & Service,33.50612,-112.041026,Phoenix,US
4ec812db0e017e2f9aa2ae0e,3e60e8b6f8394e45ac73c998b177a959,337,Design Studio,Shop & Service,33.426636,-112.082257,Phoenix,US
4a4be1fbf964a520d2ac1fe3,b611c4ea12d64b6293c45943f6ed2e5f,206,Karaoke Bar,Nightlife Spot,33.611532000000004,-112.153504,Phoenix,US
4d798e94b39b2c0f8dbbe590,d65836ca9e304c19b593a09a5653bad4,359,Hotel,Travel & Transport,33.447342,-112.072821,Phoenix,US
4babebb0f964a52080d53ae3,a0789738c36845869f3ce75c08096039,88,Miscellaneous Shop,Shop & Service,33.509316,-112.030168,Phoenix,US
4fde123de4b05991751dbadf,9e136e5f03164be691fd822254f1c958,204,Neighborhood,Outdoors & Recreation,33.521958000000005,-112.041614,Phoenix,US
4bcca346b6c49c743c1a9491,0935da85d4ae4f6cbebd37d1df042005,185,Bank,Shop & Service,33.509637,-112.038587,Phoenix,US
4a563a04f964a520cab41fe3,d3290a46c9eb4cb99ce99764282e277c,232,Office,Professional & Other Places,33.666863,-112.127044,Phoenix,US
4f04cb4e8b81bb1b01fe62c1,576c4c7484bd4ec5b96b52a17db81bac,352,General Travel,Travel & Transport,33.567573,-112.13428600000002,Phoenix,US
4b3acbd4f964a5208a6e25e3,5e930312803d481ca2d765dfe8d703fa,378,Pet Store,Shop & Service,33.584579999999995,-111.975709,Phoenix,US
4d3dcddd3ec9a35debba5481,d3290a46c9eb4cb99ce99764282e277c,232,Office,Professional & Other Places,33.422681,-111.981531,Phoenix,US
4fa6f899e4b094b947781e0b,12104e23b34f4b659166af7c1fca1b2a,245,Home (private),Residence,33.557279,-112.292051,Phoenix,US
4fc13ffde4b014a2d69f3435,12104e23b34f4b659166af7c1fca1b2a,245,Home (private),Residence,33.547243,-112.232441,Phoenix,US
4bfc3303f4dc9c7444949e3f,633893add8f143da91cc4499bc69f825,120,High School,Professional & Other Places,33.510806,-112.257121,Phoenix,US
4fb86a9be4b0bd07fdbad3c4,820320f0543841c1bd3e7508852147f2,193,Gas Station / Garage,Shop & Service,33.466079,-112.029708,Phoenix,US
4f530cede4b006151550fd41,d3524d37b8bb4ee0ab98dc96534de3ea,364,Factory,Professional & Other Places,33.421627,-112.02598799999998,Phoenix,US
4fa976e3e4b01128c18f7ae1,12104e23b34f4b659166af7c1fca1b2a,245,Home (private),Residence,33.466566,-112.208596,Phoenix,US
4be1af25a90320a1488d559f,0b5817ff78e943bc9fd7436a113f0a6e,279,City,Outdoors & Recreation,33.539141,-112.185817,Phoenix,US
4b8d7617f964a5201dfd32e3,e6efad379be046779b363be07120fb3b,108,Coffee Shop,Drink,33.377828,-112.17085,Phoenix,US
4caccc3797c8a1cdf700a4a5,af2a3ecb7a1c46e8b136a82d4110ac64,290,Mexican Restaurant,Food,33.638884999999995,-112.154307,Phoenix,US
4b214d1cf964a520d03924e3,bfe53afadf5946498ef9af628547515c,248,Pizza Place,Food,33.466142,-112.27841,Phoenix,US
4b649610f964a520dbbf2ae3,f12245572898439886377df1f8db3fde,156,American Restaurant,Food,33.610412,-112.169078,Phoenix,US
4b69f7adf964a520cebe2be3,8cf164ecb8df4183a8f156da8017a5a5,197,Hiking Trail,Outdoors & Recreation,33.532112,-112.012289,Phoenix,US
4ade3d38f964a520337421e3,d65836ca9e304c19b593a09a5653bad4,359,Hotel,Travel & Transport,33.508718,-112.02939,Phoenix,US
4f7abb0ee4b02f1b2cb1a3a6,48984814ad0d47e19df3a135f713e0a2,152,Strip Club,Nightlife Spot,33.373178,-112.164263,Phoenix,US
4b523760f964a520777027e3,b8e73a846beb4e4e85195e50569576ac,131,Community College,College & University,33.412874,-111.974091,Phoenix,US
4b8955d3f964a520812c32e3,f61eeed0b51040d49e94b6dac8ca42a9,111,Breakfast Spot,Food,33.538201,-112.165586,Phoenix,US
4f32b674e4b09fde5f5ef762,da5c52ae1a514f07be40e2039a1d8302,357,Residential Building (Apartment / Condo),Residence,33.484416,-111.999294,Phoenix,US
4dc40f372271f270510933b8,78ec05ae74f74999bc5765bae12b422a,351,Airport Terminal,Travel & Transport,33.433626000000004,-111.999478,Phoenix,US
4d2f09345055a35d10fa97ca,e6efad379be046779b363be07120fb3b,108,Coffee Shop,Drink,33.510197999999995,-112.027438,Phoenix,US
4a6b58bbf964a52087ce1fe3,918247ac647246ba907fbe5f0e01c225,86,Art Gallery,Arts & Entertainment,33.472528000000004,-112.072686,Phoenix,US
4f05391c77c8f87cd13e97b2,12104e23b34f4b659166af7c1fca1b2a,245,Home (private),Residence,33.384063,-112.13706,Phoenix,US
4e2daac9fa76bbf847f0011c,d28ecd5a004e4972896b64560c14990a,278,Light Rail,Travel & Transport,33.447321,-112.036968,Phoenix,US
4ec5b8840e6158bafc81a75d,b7feb7cd921e4090858f2105033cbc61,250,Gym,Outdoors & Recreation,33.640885,-112.120756,Phoenix,US
4e9726020039d6d5f4815180,092e201bb63a4b6eab7c08ad32a2d169,16,Automotive Shop,Shop & Service,33.437135999999995,-112.147064,Phoenix,US
4b783e31f964a5200ebf2ee3,e0faeae47f0440f8b30a31f707ab0f40,213,Fair,Professional & Other Places,33.469361,-112.09771200000002,Phoenix,US
4bc3958df8219c74dc4cb610,d3290a46c9eb4cb99ce99764282e277c,232,Office,Professional & Other Places,33.55866,-112.111075,Phoenix,US
4af4b21df964a5202bf521e3,e6efad379be046779b363be07120fb3b,108,Coffee Shop,Drink,33.480028000000004,-112.013555,Phoenix,US
5008a602e4b00e31373a4b86,910b05ae48e14b0bb47b6550159156e3,155,Asian Restaurant,Food,33.4791,-112.073512,Phoenix,US
4e274743e4cd6c6cb33b38b2,186b77490e434231b2882cf2ff2d2495,286,Music Venue,Arts & Entertainment,33.579507,-112.190791,Phoenix,US
501cf5c4e4b0944fadc25a2d,12104e23b34f4b659166af7c1fca1b2a,245,Home (private),Residence,33.562924,-112.148983,Phoenix,US
4a358186f964a520139d1fe3,82850b4350904bf7ae2306ab043e7754,282,Sports Bar,Nightlife Spot,33.637685999999995,-112.18734,Phoenix,US
5012db7ee4b01bcdb1997a16,1578b1b9884a48ed84704593c292e3cd,54,Mediterranean Restaurant,Food,33.464043,-112.273079,Phoenix,US
4ffb27aae4b01d0822068ebe,7116134b915945058a0bf129b1a99a48,32,Caf,Drink,33.435435,-111.998019,Phoenix,US
4becece92a7bb713f7ffce9d,25029f69ddf24fabadc7f5741afb5431,187,Government Building,Professional & Other Places,33.449109,-112.087048,Phoenix,US
4ab3be54f964a5203e6e20e3,d65836ca9e304c19b593a09a5653bad4,359,Hotel,Travel & Transport,33.510967,-112.024992,Phoenix,US
50302a5ce4b047ef9ad647bc,12104e23b34f4b659166af7c1fca1b2a,245,Home (private),Residence,33.402261,-111.982058,Phoenix,US
4ddfc081d164da4f2334e893,d3290a46c9eb4cb99ce99764282e277c,232,Office,Professional & Other Places,33.40237800000001,-111.992191,Phoenix,US
4baff64af964a5209c2e3ce3,820320f0543841c1bd3e7508852147f2,193,Gas Station / Garage,Shop & Service,33.460985,-112.204914,Phoenix,US
4ca362ffa73cb60cb6481878,e9205553a7be43a38e34153cb25874bf,183,College Math Building,College & University,33.570797,-112.191478,Phoenix,US
502ac807e4b02d4e93003f14,16cc1f7d21c748beafcc3a4e0a4c770f,14,Bar,Nightlife Spot,33.457079,-112.071574,Phoenix,US
503ffecae4b0379866a02af4,6e03750d63eb4afa9c0a00b350ceca31,370,Pub,Nightlife Spot,33.622475,-112.194725,Phoenix,US
4db870aeced7cef042e0acc8,fee1b155d4b848a8a375e6868dc2242b,161,College Administrative Building,College & University,33.572074,-112.187635,Phoenix,US
4cb5ffad1b0af04d7171cd25,fc331a5b59d640c6bb463fdce01c0a1f,340,Building,Professional & Other Places,33.448208,-112.188311,Phoenix,US
4b1d390cf964a520390d24e3,fc331a5b59d640c6bb463fdce01c0a1f,340,Building,Professional & Other Places,33.518,-112.081814,Phoenix,US
4d6296d9338bb60c1aee40bd,1bba130f6dfc4c80acbe8cb0a3e6adf3,201,College Classroom,College & University,33.495533,-111.979809,Phoenix,US
4cd5a78a94848cfa70efe7b1,2ad3140025724a31821742d37e10ff4c,67,Cosmetics Shop,Shop & Service,33.505887,-112.273583,Phoenix,US
4c575aba12f0d13acf0307ad,7e3f285ebf70474db064b99025bac03d,277,Bowling Alley,Arts & Entertainment,33.612264,-112.120809,Phoenix,US
502e83ede4b04de6f32ab1b3,1f3f74596c0449e99fb17b450309349a,329,Wings Joint,Food,33.580669,-112.118224,Phoenix,US
504e790de4b04e8bde93a54c,1da6066edad0430691caf28f50f09fe6,311,Shrine,Professional & Other Places,33.500283,-112.088236,Phoenix,US
4dd5a0871838b8561cb9af5a,25029f69ddf24fabadc7f5741afb5431,187,Government Building,Professional & Other Places,33.429476,-112.129407,Phoenix,US
4ba14c2af964a52038aa37e3,7ab55411dbce49ccbf61c9545a64890a,92,Sandwich Place,Food,33.379139,-112.169472,Phoenix,US
4cf19bb87e93f04d163e4e69,12104e23b34f4b659166af7c1fca1b2a,245,Home (private),Residence,33.501775,-112.077445,Phoenix,US
5050352be4b04e8a4c1e58e5,16cc1f7d21c748beafcc3a4e0a4c770f,14,Bar,Nightlife Spot,33.505825,-112.041271,Phoenix,US
4f8dc22be4b009dda439162b,820320f0543841c1bd3e7508852147f2,193,Gas Station / Garage,Shop & Service,33.639737,-112.093161,Phoenix,US
4ab69ab4f964a520167820e3,a0789738c36845869f3ce75c08096039,88,Miscellaneous Shop,Shop & Service,33.423418,-112.269732,Phoenix,US
504650a9e4b0b11ba1a3cf64,12104e23b34f4b659166af7c1fca1b2a,245,Home (private),Residence,33.630018,-112.017829,Phoenix,US
4ea3355d02d529c116f5c365,12104e23b34f4b659166af7c1fca1b2a,245,Home (private),Residence,33.607721000000005,-112.13706,Phoenix,US
4b198272f964a5209dde23e3,fc331a5b59d640c6bb463fdce01c0a1f,340,Building,Professional & Other Places,33.510225,-112.046946,Phoenix,US
503c368be4b033d7851a0d62,49679d2aa11049ebaf522c691958c1d1,8,Theme Park,Arts & Entertainment,33.487179,-111.9962,Phoenix,US
507d60bae4b0277b94247ce2,12104e23b34f4b659166af7c1fca1b2a,245,Home (private),Residence,33.507462,-112.160906,Phoenix,US
4b85b0c6f964a520186d31e3,69367fdf47304da7b98ae02076f5c47f,328,Rental Car Location,Travel & Transport,33.430921999999995,-112.044979,Phoenix,US
505127abe4b0f53cf04de824,6329a534ffce490caf6c0d498db4719f,81,Nightclub,Nightlife Spot,33.448043,-112.074374,Phoenix,US
4f47c1d1e4b0cf7a0579ba93,eaddb3d18dd04b5182fecc6ac0ef219f,221,College Academic Building,College & University,33.570722,-112.188515,Phoenix,US
5056d35264a43b2f1bcc7f0b,da5c52ae1a514f07be40e2039a1d8302,357,Residential Building (Apartment / Condo),Residence,33.509429,-111.992075,Phoenix,US
4f0f2650e4b045a5c4e07fe2,79bd60b3a13f4e8fb19bae970aa52709,224,Doctor's Office,Professional & Other Places,33.46315,-112.057345,Phoenix,US
4ba3dd08f964a520cf6738e3,e3195b7695264edca1e7e569d43896f0,251,Bus Line,Travel & Transport,33.430966999999995,-112.044293,Phoenix,US
4c8530e2d34ca14305024580,dbd823ee65ec431899cb2a441ae6142f,238,Road,Travel & Transport,33.462683,-112.189952,Phoenix,US
4c7ae3103badb1f769a95354,da5c52ae1a514f07be40e2039a1d8302,357,Residential Building (Apartment / Condo),Residence,33.540296000000005,-112.098616,Phoenix,US
4b94303af964a5209c6d34e3,12104e23b34f4b659166af7c1fca1b2a,245,Home (private),Residence,33.642392,-112.065522,Phoenix,US
4f1470bae4b01eeff1294bac,9a05945e7e7b4b53b34196d9b90167ec,217,Coworking Space,Professional & Other Places,33.445487,-111.97444,Phoenix,US
5085c381e4b038e4e19d739e,bfe53afadf5946498ef9af628547515c,248,Pizza Place,Food,33.513475,-112.074118,Phoenix,US
4d113e3099b78cfa2a6cc8d5,ea010ee6ebe04001977b0802831c2604,125,Candy Store,Shop & Service,33.66227,-112.164762,Phoenix,US
4b944083f964a520437134e3,820320f0543841c1bd3e7508852147f2,193,Gas Station / Garage,Shop & Service,33.666461,-112.168393,Phoenix,US
4dd31ab6b0fb0dcdadef6e57,fc331a5b59d640c6bb463fdce01c0a1f,340,Building,Professional & Other Places,33.456965999999994,-112.216272,Phoenix,US
4bb26f3e4019a5937ed336b8,53efab68625543b88fe4eb1111a86dd7,66,Fast Food Restaurant,Food,33.422536,-112.222772,Phoenix,US
4c6af881e503c92862fc46b3,633893add8f143da91cc4499bc69f825,120,High School,Professional & Other Places,33.417705,-112.204828,Phoenix,US
4e28b64dfa762797e5a0776c,12104e23b34f4b659166af7c1fca1b2a,245,Home (private),Residence,33.430132,-112.232441,Phoenix,US
4e385a88149579ccbaf7217e,12104e23b34f4b659166af7c1fca1b2a,245,Home (private),Residence,33.430132,-112.232441,Phoenix,US
50341fbae4b00dd3ac5d5386,af2a3ecb7a1c46e8b136a82d4110ac64,290,Mexican Restaurant,Food,33.50883,-112.035864,Phoenix,US
4bf5ec039abec9b6f90925e8,da5c52ae1a514f07be40e2039a1d8302,357,Residential Building (Apartment / Condo),Residence,33.513472,-112.049555,Phoenix,US
505bd79de4b07797493e30ba,12104e23b34f4b659166af7c1fca1b2a,245,Home (private),Residence,33.507462,-112.160906,Phoenix,US
4f60295be4b066d8c4e00d7a,12104e23b34f4b659166af7c1fca1b2a,245,Home (private),Residence,33.667051,-112.160906,Phoenix,US
505b2350e4b0644ce24036cf,f61eeed0b51040d49e94b6dac8ca42a9,111,Breakfast Spot,Food,33.46539,-112.082105,Phoenix,US
4bfd4f9083bbd13a85f862c5,d3290a46c9eb4cb99ce99764282e277c,232,Office,Professional & Other Places,33.414249,-111.968322,Phoenix,US
4d39e8f449cb236a3fc2b447,fc331a5b59d640c6bb463fdce01c0a1f,340,Building,Professional & Other Places,33.508218,-112.013477,Phoenix,US
4e762e2ab0fb968033859a9c,25029f69ddf24fabadc7f5741afb5431,187,Government Building,Professional & Other Places,33.426673,-112.125909,Phoenix,US
509b441fe4b0bd1e674b7fc1,12104e23b34f4b659166af7c1fca1b2a,245,Home (private),Residence,33.483381,-112.232441,Phoenix,US
4b75eaf5f964a520b32e2ee3,9a05945e7e7b4b53b34196d9b90167ec,217,Coworking Space,Professional & Other Places,33.465375,-112.073873,Phoenix,US
4c56de9e6418a59370fe7d0e,4dc1ac7e345a4ba095a4cab9bc58292d,127,School,Professional & Other Places,33.430398,-112.234528,Phoenix,US
4cc478498062468817af362f,12104e23b34f4b659166af7c1fca1b2a,245,Home (private),Residence,33.546603000000005,-112.065522,Phoenix,US
504d7998e4b00c01093b0897,63d9312cc53145078f913e313ae05925,280,Casino,Arts & Entertainment,33.595299,-111.982515,Phoenix,US
50a0199be4b0d60e8eaa8d78,12104e23b34f4b659166af7c1fca1b2a,245,Home (private),Residence,33.506333000000005,-112.280129,Phoenix,US
4f9714550cd63b57ec3e9cb9,cae079240fe94f6da2d9525b8274c175,34,Mall,Shop & Service,33.534741,-112.266884,Phoenix,US
4bc895760050b7135ca8ba3b,820320f0543841c1bd3e7508852147f2,193,Gas Station / Garage,Shop & Service,33.465638,-112.169675,Phoenix,US
509c4c9de4b044f7630fa7bc,a0789738c36845869f3ce75c08096039,88,Miscellaneous Shop,Shop & Service,33.510543,-112.026442,Phoenix,US
50a2daccf136560f0a8cca14,e6efad379be046779b363be07120fb3b,108,Coffee Shop,Drink,33.53805,-112.056105,Phoenix,US
50a851e9e4b09f72f301c359,1da6066edad0430691caf28f50f09fe6,311,Shrine,Professional & Other Places,33.50393,-112.166449,Phoenix,US
50a8e0ade4b0aeb88b93620f,dbd823ee65ec431899cb2a441ae6142f,238,Road,Travel & Transport,33.503764000000004,-112.166614,Phoenix,US
4d7069d195acb1f7e90606b9,e3195b7695264edca1e7e569d43896f0,251,Bus Line,Travel & Transport,33.44481,-111.987743,Phoenix,US
4e36b70b8877beb5e9b87764,4dc1ac7e345a4ba095a4cab9bc58292d,127,School,Professional & Other Places,33.490099,-112.258285,Phoenix,US
4f316171e4b0224b4bcd1552,16f22a7eb42740fd82d5d26b2c35611f,265,Platform,Travel & Transport,33.434992,-111.993862,Phoenix,US
4cd1d4536200b1f7e616dc28,2880581db1174a3e92cd69b7109f496e,215,Clothing Store,Shop & Service,33.446529,-112.071702,Phoenix,US
509ab8e9e4b04fdbf4a730c8,2880581db1174a3e92cd69b7109f496e,215,Clothing Store,Shop & Service,33.535765999999995,-112.267145,Phoenix,US
50596de4e4b0dfb8b844febc,12104e23b34f4b659166af7c1fca1b2a,245,Home (private),Residence,33.584731,-112.089368,Phoenix,US
4c604248de6920a1977a9564,aab47d91a01b432aa2d5d2973bd9ac0e,240,Car Wash,Shop & Service,33.458894,-112.16849,Phoenix,US
50b30aa8e4b05ae90ab45589,12104e23b34f4b659166af7c1fca1b2a,245,Home (private),Residence,33.476014,-112.101291,Phoenix,US
50b7454b498ea7a45b68323d,12104e23b34f4b659166af7c1fca1b2a,245,Home (private),Residence,33.374283,-112.017829,Phoenix,US
4c82d981d92ea09300144f72,903c505578fe4575bf14d12508445bfa,57,Airport Gate,Travel & Transport,33.436509,-111.996528,Phoenix,US
4c12ae11a9c220a19070549d,d3290a46c9eb4cb99ce99764282e277c,232,Office,Professional & Other Places,33.51575,-112.047279,Phoenix,US
4ae1c1b0f964a520318721e3,820320f0543841c1bd3e7508852147f2,193,Gas Station / Garage,Shop & Service,33.452046,-112.151483,Phoenix,US
4c83f9c951ada1cd58cf2a10,dbd823ee65ec431899cb2a441ae6142f,238,Road,Travel & Transport,33.462881,-112.201846,Phoenix,US
4f1a1155e4b035439fe22649,0b930a0245ff477a933890dbbe344d0f,227,Train Station,Travel & Transport,33.444303999999995,-112.151833,Phoenix,US
50b15018e4b05083c02271de,e8207cc6255e4e30a0c3afc4631f263f,138,Cocktail Bar,Nightlife Spot,33.560558,-112.074767,Phoenix,US
4f84e332e4b04578ff19b158,dbd823ee65ec431899cb2a441ae6142f,238,Road,Travel & Transport,33.508821000000005,-112.255077,Phoenix,US
4f544165e4b09f74b9a1d732,dbd823ee65ec431899cb2a441ae6142f,238,Road,Travel & Transport,33.46488,-112.255263,Phoenix,US
4eb1e681f5b944838824c95e,dbd823ee65ec431899cb2a441ae6142f,238,Road,Travel & Transport,33.436953,-112.1516,Phoenix,US
4c92e9ed1221b1f731f915e2,dbd823ee65ec431899cb2a441ae6142f,238,Road,Travel & Transport,33.462523,-112.220535,Phoenix,US
50880b91e4b06cc8e89d7221,c1b090db95b54ac9ad65ee0890c415c5,4,Moving Target,Travel & Transport,33.462223,-112.234329,Phoenix,US
4e6b054e52b1c1206013a90a,3dc3421e5ea54a9a8aa960cd910d0fff,249,Professional & Other Places,Professional & Other Places,33.462623,-112.168354,Phoenix,US
505f8618e4b0a054471fcec3,07c92d43113b47129b9de98e1fcf4774,297,Housing Development,Residence,33.500287,-112.088236,Phoenix,US
4bd4f4a44e32d13afe42c080,82dd00b83524497bab2d367f1e2b36ab,287,Grocery Store,Shop & Service,33.610188,-112.132602,Phoenix,US
50a846bce0e2ac40e03e3ed2,19cbf0f254504174a13850214308ad11,376,Furniture / Home Store,Shop & Service,33.513955,-112.07355,Phoenix,US
4f61f038e4b034b45f22d082,dbd823ee65ec431899cb2a441ae6142f,238,Road,Travel & Transport,33.462226,-112.23348,Phoenix,US
4b5281acf964a520578027e3,ebb3b187f7f4428cb11a4ee8769d806c,104,Electronics Store,Shop & Service,33.599256,-111.981909,Phoenix,US
4e1355bed1647a0fff91a848,fc331a5b59d640c6bb463fdce01c0a1f,340,Building,Professional & Other Places,33.43065,-112.15761299999998,Phoenix,US
50b6927ae4b0a577aea5461e,b7feb7cd921e4090858f2105033cbc61,250,Gym,Outdoors & Recreation,33.446884000000004,-112.066363,Phoenix,US
4fe09d04e4b0ae1012f8d66f,a491733f9d20449ebc7b35e88010a56a,139,Beer Garden,Nightlife Spot,33.636014,-111.974911,Phoenix,US
4b66e8f4f964a520cc2f2be3,857767f09d9c422d84e34981771c1641,69,Medical School,College & University,33.663751,-112.184515,Phoenix,US
4f5f8a57e4b0253adeeae11a,ed59f251bada4e5e9ab8c0fbdfc7df1b,132,College Lab,College & University,33.66422,-112.185295,Phoenix,US
4ba034c4f964a520806137e3,8279ec72a62743538a4a40420cd96fc2,361,Taxi,Travel & Transport,33.509894,-112.15883,Phoenix,US
4fe08b7710810d13d983100b,12104e23b34f4b659166af7c1fca1b2a,245,Home (private),Residence,33.596526000000004,-112.196673,Phoenix,US
50e08a80e4b03fabf126b055,12104e23b34f4b659166af7c1fca1b2a,245,Home (private),Residence,33.500184000000004,-112.256285,Phoenix,US
4ff4a1d2164872baae4a71b3,12104e23b34f4b659166af7c1fca1b2a,245,Home (private),Residence,33.645788,-112.160906,Phoenix,US
4be225b1b02ec9b6bf694cc0,f12245572898439886377df1f8db3fde,156,American Restaurant,Food,33.598915000000005,-112.134362,Phoenix,US
50e2180de4b0a2f21aee7c05,725570cd0acc4d93ad23408f11cfc934,114,Gym / Fitness Center,Outdoors & Recreation,33.510997,-112.083346,Phoenix,US
50a43137e4b06e4d8e38409a,725570cd0acc4d93ad23408f11cfc934,114,Gym / Fitness Center,Outdoors & Recreation,33.424287,-112.271519,Phoenix,US
4c0feca23708d13a9b03615b,2320de06382146e390a8ac799d35abc8,302,Trade School,College & University,33.684779,-112.122835,Phoenix,US
4b8ff898f964a5202f6d33e3,b8e73a846beb4e4e85195e50569576ac,131,Community College,College & University,33.412997999999995,-111.975692,Phoenix,US
50abd4108aca6479ffd27249,f12245572898439886377df1f8db3fde,156,American Restaurant,Food,33.461753,-111.944976,Phoenix,US
4f96bbe9e4b0266a4fba1957,d1fb6539f4d24f8e9db891e67ed0bb07,75,Other Great Outdoors,Outdoors & Recreation,33.611002,-112.117199,Phoenix,US
4cc0b77143646dcb669f408c,fee1b155d4b848a8a375e6868dc2242b,161,College Administrative Building,College & University,33.56937,-112.188456,Phoenix,US
506b9dfde4b060cb34d9bd05,b7feb7cd921e4090858f2105033cbc61,250,Gym,Outdoors & Recreation,33.376498,-112.03213,Phoenix,US
4fcd5699e4b0b62703c85834,07c92d43113b47129b9de98e1fcf4774,297,Housing Development,Residence,33.418004,-112.273397,Phoenix,US
50cac622e4b03ff32ed701f7,e6efad379be046779b363be07120fb3b,108,Coffee Shop,Drink,33.472029,-112.047941,Phoenix,US
5105b335e4b0cc17d0b7835c,12104e23b34f4b659166af7c1fca1b2a,245,Home (private),Residence,33.489784,-111.970135,Phoenix,US
50323ee8e4b0adcbedf7728a,b7feb7cd921e4090858f2105033cbc61,250,Gym,Outdoors & Recreation,33.425021,-112.133407,Phoenix,US
510ef8dee4b032fafcb9992c,12104e23b34f4b659166af7c1fca1b2a,245,Home (private),Residence,33.488896000000004,-112.089368,Phoenix,US
503679b6e4b053240d1da69e,eaddb3d18dd04b5182fecc6ac0ef219f,221,College Academic Building,College & University,33.572164,-112.187991,Phoenix,US
5112f444e4b09741d7285205,daca399a7f4b437287496d39540e8c21,22,Gastropub,Food,33.519556,-112.06535,Phoenix,US
4fc892a6e4b0ab3d657f244e,d3290a46c9eb4cb99ce99764282e277c,232,Office,Professional & Other Places,33.399627,-112.092841,Phoenix,US
50fd86a4e4b03e4eb6473167,453bb4cb18e7498fa264c716716e2224,48,Health Food Store,Shop & Service,33.53757,-112.046208,Phoenix,US
50d09fd1498e3f64ce3338b3,b7feb7cd921e4090858f2105033cbc61,250,Gym,Outdoors & Recreation,33.497238,-112.15277,Phoenix,US
4efb457293ad7cf2edd2c1a0,ddd9bf147a654b719b76797b0c8baafd,275,General College & University,College & University,33.402246000000005,-111.965975,Phoenix,US
4f1717e2e4b01eeff3d013cc,7116134b915945058a0bf129b1a99a48,32,Caf,Drink,33.402233,-111.96601499999998,Phoenix,US
50df1449b0edbc5a8ad7be41,2ec2fa5971264f20b484a512856e2c45,102,Brewery,Nightlife Spot,33.567986,-112.066052,Phoenix,US
513416b2e4b0f53f9bd9a092,12104e23b34f4b659166af7c1fca1b2a,245,Home (private),Residence,33.491122,-112.077445,Phoenix,US
513133b1e4b08725fc7a3e6a,12104e23b34f4b659166af7c1fca1b2a,245,Home (private),Residence,33.524809999999995,-112.125137,Phoenix,US
513d1070e4b0fce947590314,fc331a5b59d640c6bb463fdce01c0a1f,340,Building,Professional & Other Places,33.464859000000004,-112.068867,Phoenix,US
513fbb3be4b0f3cc424fef29,12104e23b34f4b659166af7c1fca1b2a,245,Home (private),Residence,33.527529,-112.053599,Phoenix,US
5143ef21e4b0cec0728dd800,12104e23b34f4b659166af7c1fca1b2a,245,Home (private),Residence,33.55953,-112.280129,Phoenix,US
4e174cf07d8b8af913821f07,da5c52ae1a514f07be40e2039a1d8302,357,Residential Building (Apartment / Condo),Residence,33.620373,-112.118053,Phoenix,US
4cdafab8958f236ab832aa03,c61ad108db1a42e4bb5266a95b08dc14,51,Parking,Professional & Other Places,33.6035,-111.983779,Phoenix,US
4f15a2f9e4b0678414f32031,7116134b915945058a0bf129b1a99a48,32,Caf,Drink,33.402190999999995,-111.965823,Phoenix,US
51567ddde4b0c35fc5362c55,12104e23b34f4b659166af7c1fca1b2a,245,Home (private),Residence,33.379603,-112.160906,Phoenix,US
502ea7d5e4b05f26af2dfb32,d11166e1718548a090ac0d4a663e8907,289,Tech Startup,Professional & Other Places,33.446366999999995,-111.972292,Phoenix,US
516a2280e4b04280a4b55037,12104e23b34f4b659166af7c1fca1b2a,245,Home (private),Residence,33.642392,-112.065522,Phoenix,US
4bc376db2a89ef3be110f588,32b784165f5246c8bb4b2b6c7eeb3132,338,Performing Arts Venue,Arts & Entertainment,33.45091,-112.070706,Phoenix,US
506f9212e4b08ee526d83b4b,12104e23b34f4b659166af7c1fca1b2a,245,Home (private),Residence,33.470491,-112.244363,Phoenix,US
517b3f7fe4b0a8be660f3184,07c92d43113b47129b9de98e1fcf4774,297,Housing Development,Residence,33.462926,-112.001077,Phoenix,US
515fc8cce4b0b2d7ac7cd2a5,da5c52ae1a514f07be40e2039a1d8302,357,Residential Building (Apartment / Condo),Residence,33.457898,-111.991763,Phoenix,US
5137a8ebe4b0e335fef23ab7,b17257f1cf534b0380049db0bccf3dfa,55,Recycling Facility,Shop & Service,33.510255,-112.02869,Phoenix,US
50157ae5e4b0be172c4b2afe,12104e23b34f4b659166af7c1fca1b2a,245,Home (private),Residence,33.551053,-112.041675,Phoenix,US
501c80a7e4b087a0ada03aff,9e136e5f03164be691fd822254f1c958,204,Neighborhood,Outdoors & Recreation,33.549425,-112.04175,Phoenix,US
4dc174501838710f437dbcba,e6efad379be046779b363be07120fb3b,108,Coffee Shop,Drink,33.510652,-112.02751299999998,Phoenix,US
4c2e8b8b66e40f47027bc08b,12104e23b34f4b659166af7c1fca1b2a,245,Home (private),Residence,33.622829,-112.113214,Phoenix,US
4f46645fe4b0f737edb8ed0f,fc331a5b59d640c6bb463fdce01c0a1f,340,Building,Professional & Other Places,33.442161,-112.217005,Phoenix,US
4d71daddbce5721e7980c515,9f035cf56348426095efab7b9de4957d,42,Lounge,Nightlife Spot,33.501901000000004,-112.028784,Phoenix,US
